{"features": [{"geometry": {"coordinates": [-111.857041, 40.7222781], "type": "Point"}, "id": 369114019, "properties": {"amenity": "restaurant", "name": "Cafe Zupa"}, "type": "Feature"}, {"geometry": {"coordinates": [-111.8717727, 40.7004557], "type": "Point"}, "id": 376003921, "properties": {"amenity": "restaurant", "cuisine": "asian", "name": "E Jo"}, "type": "Feature"}, {"geometry": {"coordinates": [-111.8115394, 40.6379284], "type": "Point"}, "id": 450846642, "properties": {"amenity": "restaurant", "name": "Tuscany"}, "type": "Feature"}, {"geometry": {"coordinates": [-111.9618768, 40.6679027], "type": "Point"}, "id": 456318892, "properties": {"amenity": "restaurant", "cuisine": "american", "name": "Hires Big H"}, "type": "Feature"}, {"geometry": {"coordinates": [-111.8999616, 40.76472], "type": "Point"}, "id": 466252700, "properties": {"amenity": "restaurant", "name": "Cafe Trang"}, "type": "Feature"}, {"geometry": {"coordinates": [-111.9203546, 40.7711918], "type": "Point"}, "id": 474826010, "properties": {"amenity": "restaurant", "cuisine": "mexican", "name": "El Asadero"}, "type": "Feature"}, {"geometry": {"coordinates": [-111.93973, 40.771203], "type": "Point"}, "id": 485519133, "properties": {"amenity": "restaurant", "name": "Denny's"}, "type": "Feature"}, {"geometry": {"coordinates": [-111.900116, 40.725072], "type": "Point"}, "id": 485536872, "properties": {"addr:city": "Salt Lake City", "addr:street": "2100 South", "amenity": "restaurant", "cuisine": "american", "delivery": "no", "name": "International House of Pancakes", "outdoor_seating": "no", "smoking": "outside", "takeaway": "yes"}, "type": "Feature"}, {"geometry": {"coordinates": [-111.8540185, 40.7205141], "type": "Point"}, "id": 485539446, "properties": {"amenity": "restaurant", "name": "Red Lobster"}, "type": "Feature"}, {"geometry": {"coordinates": [-111.8542502, 40.7215354], "type": "Point"}, "id": 485539447, "properties": {"amenity": "restaurant", "name": "Olive Garden"}, "type": "Feature"}, {"geometry": {"coordinates": [-111.9272764, 40.7806381], "type": "Point"}, "id": 489192578, "properties": {"amenity": "restaurant"}, "type": "Feature"}, {"geometry": {"coordinates": [-111.8251512, 40.7000755], "type": "Point"}, "id": 495673152, "properties": {"amenity": "restaurant", "cuisine": "japanese", "name": "Koyo"}, "type": "Feature"}, {"geometry": {"coordinates": [-111.9480913, 40.6996372], "type": "Point"}, "id": 582046378, "properties": {"amenity": "restaurant", "name": "Ruby Tuesday"}, "type": "Feature"}, {"geometry": {"coordinates": [-111.9478606, 40.6989458], "type": "Point"}, "id": 582046386, "properties": {"amenity": "restaurant", "name": "Applebee's"}, "type": "Feature"}, {"geometry": {"coordinates": [-111.9503175, 40.6990841], "type": "Point"}, "id": 582051172, "properties": {"amenity": "restaurant", "name": "Cracker Barrel"}, "type": "Feature"}, {"geometry": {"coordinates": [-111.947012, 40.6992455], "type": "Point"}, "id": 582051175, "properties": {"amenity": "restaurant", "name": "IHOP"}, "type": "Feature"}, {"geometry": {"coordinates": [-111.9483756, 40.6999992], "type": "Point"}, "id": 585803025, "properties": {"amenity": "restaurant", "name": "Costa Vida"}, "type": "Feature"}, {"geometry": {"coordinates": [-111.9468307, 40.6987506], "type": "Point"}, "id": 585803026, "properties": {"amenity": "restaurant", "name": "Chilli's"}, "type": "Feature"}, {"geometry": {"coordinates": [-112.0912588, 40.6973318], "type": "Point"}, "id": 687871915, "properties": {"amenity": "restaurant", "name": "Subway"}, "type": "Feature"}, {"geometry": {"coordinates": [-112.0861905, 40.6967551], "type": "Point"}, "id": 687891911, "properties": {"amenity": "restaurant", "name": "El Habenero"}, "type": "Feature"}, {"geometry": {"coordinates": [-112.0848118, 40.6961369], "type": "Point"}, "id": 687891912, "properties": {"amenity": "restaurant", "name": "Pizza Hut"}, "type": "Feature"}, {"geometry": {"coordinates": [-112.0825427, 40.6961328], "type": "Point"}, "id": 687891913, "properties": {"amenity": "restaurant", "name": "Carl's Jr"}, "type": "Feature"}, {"geometry": {"coordinates": [-112.0830469, 40.6953804], "type": "Point"}, "id": 687891914, "properties": {"amenity": "restaurant", "name": "Papa Murphy's Take-and-Bake Pizza"}, "type": "Feature"}, {"geometry": {"coordinates": [-112.0901886, 40.6961727], "type": "Point"}, "id": 687891919, "properties": {"amenity": "restaurant", "name": "Arctic Circle"}, "type": "Feature"}, {"geometry": {"coordinates": [-111.8236577, 40.6697198], "type": "Point"}, "id": 780941242, "properties": {"amenity": "restaurant", "name": "Visconti's House"}, "type": "Feature"}, {"geometry": {"coordinates": [-112.0066178, 40.7724835], "type": "Point"}, "id": 868653950, "properties": {"amenity": "restaurant", "cuisine": "regional", "name": "Roberts Restaurant"}, "type": "Feature"}, {"geometry": {"coordinates": [-111.8904999, 40.5751982], "type": "Point"}, "id": 1252671038, "properties": {"amenity": "restaurant", "cuisine": "american", "name": "Johanna's Kitchen"}, "type": "Feature"}, {"geometry": {"coordinates": [-111.8542261, 40.7641734], "type": "Point"}, "id": 1400581555, "properties": {"amenity": "restaurant", "cuisine": "greek", "name": "Aristos", "outside_seating": "yes"}, "type": "Feature"}, {"geometry": {"coordinates": [-111.8542333, 40.7640355], "type": "Point"}, "id": 1400581561, "properties": {"amenity": "restaurant", "name": "Indochine", "outside_seating": "yes"}, "type": "Feature"}, {"geometry": {"coordinates": [-111.854298, 40.763513], "type": "Point"}, "id": 1400581563, "properties": {"addr:city": "Salt Lake City", "amenity": "restaurant", "cuisine": "seafood", "delivery": "no", "name": "Market Street Grill", "outdoor_seating": "yes", "smoking": "outside", "takeaway": "yes", "wheelchair": "yes"}, "type": "Feature"}, {"geometry": {"coordinates": [-111.8546866, 40.7001505], "type": "Point"}, "id": 1402379970, "properties": {"amenity": "restaurant", "name": "Einstein Brother's"}, "type": "Feature"}, {"geometry": {"coordinates": [-111.8657392, 40.7544659], "type": "Point"}, "id": 1409035676, "properties": {"amenity": "restaurant", "lunch": "yes", "name": "Cafe Trio", "outdoor_seating": "yes"}, "type": "Feature"}, {"geometry": {"coordinates": [-111.9020427, 40.7604055], "type": "Point"}, "id": 1410178765, "properties": {"addr:housenumber": "365", "addr:street": "W 400 S", "amenity": "restaurant", "cuisine": "international", "name": "The Tin Angel", "phone": "801-328-4155", "website": "http://www.thetinangel.com/"}, "type": "Feature"}, {"geometry": {"coordinates": [-111.8529876, 40.7647806], "type": "Point"}, "id": 1467693252, "properties": {"amenity": "restaurant", "cuisine": "pizza", "name": "The Pie Pizzeria"}, "type": "Feature"}, {"geometry": {"coordinates": [-111.8525386, 40.7645606], "type": "Point"}, "id": 1467750080, "properties": {"amenity": "restaurant", "cuisine": "american", "name": "Big Ed"}, "type": "Feature"}, {"geometry": {"coordinates": [-111.8907825, 40.7620734], "type": "Point"}, "id": 1581342035, "properties": {"amenity": "restaurant", "name": "Eva"}, "type": "Feature"}, {"geometry": {"coordinates": [-111.8885341, 40.7616461], "type": "Point"}, "id": 1581342044, "properties": {"addr:city": "Salt Lake City", "addr:housename": "Pie Hole", "addr:housenumber": "344  S", "addr:street": "State Street", "amenity": "restaurant", "capacity": "99", "cuisine": "pizza", "name": "Pie Hole", "payment:bitcoin": "yes", "payment:coins": "yes", "phone": "801-359-4653", "website": "http://pieholeutah.com/"}, "type": "Feature"}, {"geometry": {"coordinates": [-111.8073157, 40.7000854], "type": "Point"}, "id": 1586380290, "properties": {"amenity": "restaurant", "cuisine": "italian", "name": "Cafe Rio"}, "type": "Feature"}, {"geometry": {"coordinates": [-111.8305811, 40.7258316], "type": "Point"}, "id": 1586472019, "properties": {"addr:housenumber": "2041 South", "addr:postcode": "84108", "addr:street": "2100 East", "amenity": "restaurant", "cuisine": "american", "name": "The Blue Plate Diner", "source": "Local Knowledge", "website": "http://theblueplatediner.com/"}, "type": "Feature"}, {"geometry": {"coordinates": [-111.8655968, 40.6674915], "type": "Point"}, "id": 1611687531, "properties": {"amenity": "restaurant", "name": "Anna's"}, "type": "Feature"}, {"geometry": {"coordinates": [-111.8886733, 40.6631357], "type": "Point"}, "id": 1611687542, "properties": {"amenity": "restaurant", "cuisine": "sandwich", "name": "East Coast Subs"}, "type": "Feature"}, {"geometry": {"coordinates": [-111.8656073, 40.6669309], "type": "Point"}, "id": 1611687603, "properties": {"amenity": "restaurant", "cuisine": "japanese", "name": "Natsu", "name:ja": "\u013a\u00a4\u008f"}, "type": "Feature"}, {"geometry": {"coordinates": [-111.8667106, 40.6673801], "type": "Point"}, "id": 1611689347, "properties": {"amenity": "restaurant", "cuisine": "mexican"}, "type": "Feature"}, {"geometry": {"coordinates": [-111.893, 40.76586], "type": "Point"}, "id": 1628867353, "properties": {"amenity": "restaurant", "name": "Benihana"}, "type": "Feature"}, {"geometry": {"coordinates": [-111.8914481, 40.7647475], "type": "Point"}, "id": 1630126357, "properties": {"addr:housenumber": "202", "addr:postcode": "84101", "addr:street": "South Main Street", "amenity": "restaurant", "cuisine": "regional", "name": "Bambara", "website": "http://www.bambara-slc.com/"}, "type": "Feature"}, {"geometry": {"coordinates": [-111.8660013, 40.7257628], "type": "Point"}, "id": 1660056251, "properties": {"amenity": "restaurant", "cuisine": "pizza", "name": "Este New York Style Pizzeria"}, "type": "Feature"}, {"geometry": {"coordinates": [-111.9161461, 40.7696677], "type": "Point"}, "id": 1682624812, "properties": {"addr:housename": "Red Iguana", "addr:housenumber": "866 West", "addr:postcode": "84104", "addr:street": "South Temple", "amenity": "restaurant", "cuisine": "mexican", "name": "Red Iguana 2", "website": "http://rediguana.com/red2.html"}, "type": "Feature"}, {"geometry": {"coordinates": [-111.8915157, 40.7679055], "type": "Point"}, "id": 1695336998, "properties": {"amenity": "restaurant", "cuisine": "brazilian", "level": "0", "name": "Texas de Brazil"}, "type": "Feature"}, {"geometry": {"coordinates": [-111.9811086, 40.5084004], "type": "Point"}, "id": 1699086872, "properties": {"amenity": "restaurant", "name": "Chili's"}, "type": "Feature"}, {"geometry": {"coordinates": [-111.9818757, 40.5081577], "type": "Point"}, "id": 1699086990, "properties": {"amenity": "restaurant", "name": "Winger's"}, "type": "Feature"}, {"geometry": {"coordinates": [-112.0113681, 40.5075085], "type": "Point"}, "id": 1731340466, "properties": {"amenity": "restaurant", "cuisine": "ice_cream", "name": "Iceburg"}, "type": "Feature"}, {"geometry": {"coordinates": [-111.7804454, 40.7620803], "type": "Point"}, "id": 1746921197, "properties": {"amenity": "restaurant", "name": "Ruth's Diner"}, "type": "Feature"}, {"geometry": {"coordinates": [-111.853497, 40.593951], "type": "Point"}, "id": 1761421398, "properties": {"amenity": "restaurant", "name": "Mount Fuji"}, "type": "Feature"}, {"geometry": {"coordinates": [-111.8543982, 40.5956537], "type": "Point"}, "id": 1761428094, "properties": {"amenity": "restaurant", "name": "Taste of Punjab"}, "type": "Feature"}, {"geometry": {"coordinates": [-111.8541192, 40.5956496], "type": "Point"}, "id": 1761428096, "properties": {"amenity": "restaurant", "name": "Szechuan Garden"}, "type": "Feature"}, {"geometry": {"coordinates": [-111.8771745, 40.7630546], "type": "Point"}, "id": 1808376508, "properties": {"addr:housenumber": "473", "addr:postcode": "84111", "addr:street": "West 300 South", "amenity": "restaurant", "cuisine": "vegetarian", "diet:vegetarian": "only", "name": "Sage's Cafe", "website": "http://sagescafe.com/"}, "type": "Feature"}, {"geometry": {"coordinates": [-111.8867626, 40.7630556], "type": "Point"}, "id": 1832055418, "properties": {"amenity": "restaurant", "cuisine": "american", "name": "Copper Common"}, "type": "Feature"}, {"geometry": {"coordinates": [-111.8760935, 40.7626139], "type": "Point"}, "id": 1832055419, "properties": {"amenity": "restaurant", "cuisine": "mexican", "name": "Su Casa"}, "type": "Feature"}, {"geometry": {"coordinates": [-111.8871689, 40.7630601], "type": "Point"}, "id": 1832055420, "properties": {"amenity": "restaurant", "name": "The Copper Onion"}, "type": "Feature"}, {"geometry": {"coordinates": [-111.8877864, 40.7643402], "type": "Point"}, "id": 1834310686, "properties": {"amenity": "restaurant", "name": "Toasters"}, "type": "Feature"}, {"geometry": {"coordinates": [-111.8913984, 40.763038], "type": "Point"}, "id": 1834370376, "properties": {"amenity": "restaurant", "cuisine": "mexican", "name": "Barbacoa"}, "type": "Feature"}, {"geometry": {"coordinates": [-111.8914113, 40.7634267], "type": "Point"}, "id": 1834370395, "properties": {"amenity": "restaurant", "cuisine": "vietnamese", "name": "Cindy Lee Cafe"}, "type": "Feature"}, {"geometry": {"coordinates": [-111.8914029, 40.7662848], "type": "Point"}, "id": 1834370481, "properties": {"amenity": "restaurant", "cuisine": "italian", "name": "Michelangelo's"}, "type": "Feature"}, {"geometry": {"coordinates": [-111.8914263, 40.7637395], "type": "Point"}, "id": 1834370489, "properties": {"addr:housenumber": "238", "addr:street": "South Main Street", "amenity": "restaurant", "cuisine": "pizza", "name": "Pier 49 Pizza"}, "type": "Feature"}, {"geometry": {"coordinates": [-111.8914469, 40.7675239], "type": "Point"}, "id": 1834370516, "properties": {"amenity": "restaurant", "name": "The Chalk Garden Coop"}, "type": "Feature"}, {"geometry": {"coordinates": [-111.7950751, 40.6863241], "type": "Point"}, "id": 1834779446, "properties": {"amenity": "restaurant", "cuisine": "sandwich", "name": "Einstein Brothers Bagels"}, "type": "Feature"}, {"geometry": {"coordinates": [-111.8345913, 40.7000397], "type": "Point"}, "id": 1834779451, "properties": {"amenity": "restaurant", "cuisine": "mexican", "name": "La Fountain"}, "type": "Feature"}, {"geometry": {"coordinates": [-111.8545245, 40.6256506], "type": "Point"}, "id": 1834779484, "properties": {"amenity": "restaurant", "cuisine": "asian", "name": "Noodles Company"}, "type": "Feature"}, {"geometry": {"coordinates": [-111.8221116, 40.6236228], "type": "Point"}, "id": 1834779488, "properties": {"amenity": "restaurant", "cuisine": "sandwich", "name": "Subway"}, "type": "Feature"}, {"geometry": {"coordinates": [-111.8487991, 40.6921398], "type": "Point"}, "id": 1834779833, "properties": {"amenity": "restaurant", "cuisine": "chinese"}, "type": "Feature"}, {"geometry": {"coordinates": [-111.890787, 40.7621754], "type": "Point"}, "id": 1838297450, "properties": {"amenity": "restaurant", "cuisine": "sandwich", "name": "The Robins Nest"}, "type": "Feature"}, {"geometry": {"coordinates": [-111.9382938, 40.5895069], "type": "Point"}, "id": 1885944109, "properties": {"amenity": "restaurant", "cuisine": "american", "name": "Village Inn"}, "type": "Feature"}, {"geometry": {"coordinates": [-111.9300246, 40.5883215], "type": "Point"}, "id": 1885952638, "properties": {"amenity": "restaurant", "cuisine": "chinese", "name": "Red Lantern"}, "type": "Feature"}, {"geometry": {"coordinates": [-111.8876784, 40.7271834], "type": "Point"}, "id": 1983025890, "properties": {"amenity": "restaurant", "cuisine": "american", "name": "Salt Lake County Cafeteria", "source": "local knowledge"}, "type": "Feature"}, {"geometry": {"coordinates": [-112.0243851, 40.7041716], "type": "Point"}, "id": 2055571660, "properties": {"addr:housenumber": "3075", "addr:postcode": "84121", "addr:street": "South 5600 West", "amenity": "restaurant", "cuisine": "american", "name": "Chili's"}, "type": "Feature"}, {"geometry": {"coordinates": [-112.0255547, 40.7085244], "type": "Point"}, "id": 2055651227, "properties": {"amenity": "restaurant", "cuisine": "mexican", "name": "La Fountain"}, "type": "Feature"}, {"geometry": {"coordinates": [-112.0257102, 40.7088497], "type": "Point"}, "id": 2055653491, "properties": {"amenity": "restaurant", "cuisine": "thai", "name": "Thai This"}, "type": "Feature"}, {"geometry": {"coordinates": [-112.0256029, 40.7034493], "type": "Point"}, "id": 2055656426, "properties": {"amenity": "restaurant", "cuisine": "american", "name": "IHOP"}, "type": "Feature"}, {"geometry": {"coordinates": [-111.8656481, 40.750147], "type": "Point"}, "id": 2140780670, "properties": {"amenity": "restaurant", "cuisine": "american", "name": "Pago"}, "type": "Feature"}, {"geometry": {"coordinates": [-111.8866007, 40.7596217], "type": "Point"}, "id": 2200750397, "properties": {"amenity": "restaurant", "name": "Washington Square Cafe", "website": "http://www.clocktowercatering.com/"}, "type": "Feature"}, {"geometry": {"coordinates": [-111.858744, 40.771528], "type": "Point"}, "id": 2211697127, "properties": {"amenity": "restaurant", "name": "Cucina Deli", "smoking": "no", "takeaway": "yes"}, "type": "Feature"}, {"geometry": {"coordinates": [-111.8730497, 40.7571463], "type": "Point"}, "id": 2288201853, "properties": {"amenity": "restaurant", "cuisine": "american", "name": "Desert Edge Brew pub"}, "type": "Feature"}, {"geometry": {"coordinates": [-111.8508009, 40.6241123], "type": "Point"}, "id": 2326325687, "properties": {"amenity": "restaurant", "cuisine": "mexican", "name": "Cafe Rio"}, "type": "Feature"}, {"geometry": {"coordinates": [-111.8505177, 40.6252529], "type": "Point"}, "id": 2326325688, "properties": {"amenity": "restaurant", "cuisine": "asian", "name": "Panda Express"}, "type": "Feature"}, {"geometry": {"coordinates": [-111.8515211, 40.6256392], "type": "Point"}, "id": 2326325689, "properties": {"amenity": "restaurant", "cuisine": "mexican", "name": "Chipotle"}, "type": "Feature"}, {"geometry": {"coordinates": [-111.8523758, 40.6254825], "type": "Point"}, "id": 2326325690, "properties": {"amenity": "restaurant", "cuisine": "sandwich", "name": "Paradise Bakery"}, "type": "Feature"}, {"geometry": {"coordinates": [-111.8552997, 40.6230737], "type": "Point"}, "id": 2326325691, "properties": {"amenity": "restaurant", "cuisine": "american", "name": "Applebee's"}, "type": "Feature"}, {"geometry": {"coordinates": [-111.8565632, 40.6204129], "type": "Point"}, "id": 2326325692, "properties": {"amenity": "restaurant", "cuisine": "burger", "name": "In N Out Burger"}, "type": "Feature"}, {"geometry": {"coordinates": [-111.8564202, 40.6211592], "type": "Point"}, "id": 2326325694, "properties": {"amenity": "restaurant", "cuisine": "sandwich", "name": "Einstein's"}, "type": "Feature"}, {"geometry": {"coordinates": [-111.8564159, 40.6210925], "type": "Point"}, "id": 2326325695, "properties": {"amenity": "restaurant", "cuisine": "sandwich", "name": "Quizno's"}, "type": "Feature"}, {"geometry": {"coordinates": [-111.8583826, 40.6211117], "type": "Point"}, "id": 2326325696, "properties": {"amenity": "restaurant", "cuisine": "pizza", "name": "The Pie Pizzaria"}, "type": "Feature"}, {"geometry": {"coordinates": [-111.8592379, 40.6208545], "type": "Point"}, "id": 2326325697, "properties": {"amenity": "restaurant", "cuisine": "asian", "name": "Teriyaki Grill"}, "type": "Feature"}, {"geometry": {"coordinates": [-111.859276, 40.6207801], "type": "Point"}, "id": 2326325700, "properties": {"amenity": "restaurant", "cuisine": "regional", "name": "Jamba Juice"}, "type": "Feature"}, {"geometry": {"coordinates": [-111.8615356, 40.6233385], "type": "Point"}, "id": 2326325719, "properties": {"amenity": "restaurant", "cuisine": "chicken", "name": "Chick Fil A"}, "type": "Feature"}, {"geometry": {"coordinates": [-111.8619212, 40.6225285], "type": "Point"}, "id": 2326325724, "properties": {"amenity": "restaurant", "cuisine": "American", "name": "Chili's"}, "type": "Feature"}, {"geometry": {"coordinates": [-111.8601862, 40.6240361], "type": "Point"}, "id": 2326325730, "properties": {"amenity": "restaurant", "cuisine": "burger", "name": "Five Guys"}, "type": "Feature"}, {"geometry": {"coordinates": [-111.8603308, 40.6241276], "type": "Point"}, "id": 2326325736, "properties": {"amenity": "restaurant", "cuisine": "Asian", "name": "Pei Wei"}, "type": "Feature"}, {"geometry": {"coordinates": [-111.8637732, 40.6235162], "type": "Point"}, "id": 2326325741, "properties": {"amenity": "restaurant", "cuisine": "American", "name": "Wild Buffalo Wings"}, "type": "Feature"}, {"geometry": {"coordinates": [-111.8639384, 40.622923], "type": "Point"}, "id": 2326325748, "properties": {"amenity": "restaurant", "cuisine": "American", "name": "Longhorns Steakhouse"}, "type": "Feature"}, {"geometry": {"coordinates": [-111.8664962, 40.6226252], "type": "Point"}, "id": 2326325753, "properties": {"amenity": "restaurant", "cuisine": "burger", "name": "McDonald's"}, "type": "Feature"}, {"geometry": {"coordinates": [-111.8655436, 40.6234998], "type": "Point"}, "id": 2326325772, "properties": {"amenity": "restaurant", "cuisine": "burger", "name": "Wendy's"}, "type": "Feature"}, {"geometry": {"coordinates": [-111.8654128, 40.622891], "type": "Point"}, "id": 2326325776, "properties": {"amenity": "restaurant", "cuisine": "American", "name": "Weinerschnitzl"}, "type": "Feature"}, {"geometry": {"coordinates": [-111.8675932, 40.622408], "type": "Point"}, "id": 2326325779, "properties": {"amenity": "restaurant", "cuisine": "burger", "name": "Sonic"}, "type": "Feature"}, {"geometry": {"coordinates": [-111.8684366, 40.6223506], "type": "Point"}, "id": 2326325783, "properties": {"amenity": "restaurant", "cuisine": "burger", "name": "Hires"}, "type": "Feature"}, {"geometry": {"coordinates": [-111.8703919, 40.6216477], "type": "Point"}, "id": 2326325786, "properties": {"amenity": "restaurant", "cuisine": "American", "name": "Arby's"}, "type": "Feature"}, {"geometry": {"coordinates": [-111.8716621, 40.6211408], "type": "Point"}, "id": 2326325789, "properties": {"amenity": "restaurant", "cuisine": "burger", "name": "Burger King"}, "type": "Feature"}, {"geometry": {"coordinates": [-111.8707912, 40.622327], "type": "Point"}, "id": 2326325793, "properties": {"amenity": "restaurant", "cuisine": "pizza", "name": "Pizza Pie Cafe"}, "type": "Feature"}, {"geometry": {"coordinates": [-111.8352429, 40.6240978], "type": "Point"}, "id": 2326325802, "properties": {"amenity": "restaurant", "cuisine": "mexican", "name": "Taco Bell"}, "type": "Feature"}, {"geometry": {"coordinates": [-111.8338663, 40.6233715], "type": "Point"}, "id": 2326325810, "properties": {"amenity": "restaurant", "cuisine": "burger", "name": "Sonic"}, "type": "Feature"}, {"geometry": {"coordinates": [-111.8547045, 40.6249588], "type": "Point"}, "id": 2326325814, "properties": {"amenity": "restaurant", "cuisine": "burger", "name": "Carl's Jr"}, "type": "Feature"}, {"geometry": {"coordinates": [-111.8551455, 40.6236419], "type": "Point"}, "id": 2326325817, "properties": {"amenity": "restaurant", "cuisine": "American", "name": "Denny's"}, "type": "Feature"}, {"geometry": {"coordinates": [-111.8626273, 40.6223956], "type": "Point"}, "id": 2326325820, "properties": {"amenity": "restaurant", "cuisine": "Sandwich", "name": "Firehouse Subs"}, "type": "Feature"}, {"geometry": {"coordinates": [-111.8333699, 40.6389039], "type": "Point"}, "id": 2326348545, "properties": {"amenity": "restaurant", "cuisine": "sandwich", "name": "Subway"}, "type": "Feature"}, {"geometry": {"coordinates": [-111.8371947, 40.625052], "type": "Point"}, "id": 2326348546, "properties": {"amenity": "restaurant", "cuisine": "mexican", "name": "Cancun Cafe"}, "type": "Feature"}, {"geometry": {"coordinates": [-111.8381174, 40.6240728], "type": "Point"}, "id": 2326348548, "properties": {"amenity": "restaurant", "cuisine": "pizza", "name": "Papa John's"}, "type": "Feature"}, {"geometry": {"coordinates": [-111.8243335, 40.6245858], "type": "Point"}, "id": 2326348553, "properties": {"amenity": "restaurant", "cuisine": "mexican", "name": "La Cocina"}, "type": "Feature"}, {"geometry": {"coordinates": [-111.8930078, 40.7657194], "type": "Point"}, "id": 2327589745, "properties": {"amenity": "restaurant", "cuisine": "mexican", "name": "Blue Iguana"}, "type": "Feature"}, {"geometry": {"coordinates": [-111.8961192, 40.7647992], "type": "Point"}, "id": 2327590568, "properties": {"amenity": "restaurant", "cuisine": "chinese", "name": "J Wong's "}, "type": "Feature"}, {"geometry": {"coordinates": [-111.8908431, 40.7615891], "type": "Point"}, "id": 2327628342, "properties": {"amenity": "restaurant", "cuisine": "italian", "name": "Maxwell's East Coast Eatery"}, "type": "Feature"}, {"geometry": {"coordinates": [-111.8904113, 40.7574222], "type": "Point"}, "id": 2327628373, "properties": {"amenity": "restaurant", "cuisine": "international", "name": "Garden Cafe"}, "type": "Feature"}, {"geometry": {"coordinates": [-111.8913795, 40.761835], "type": "Point"}, "id": 2327628379, "properties": {"amenity": "restaurant", "cuisine": "american", "name": "The Melting Pot"}, "type": "Feature"}, {"geometry": {"coordinates": [-111.8908301, 40.7654736], "type": "Point"}, "id": 2327628388, "properties": {"amenity": "restaurant", "cuisine": "american", "name": "Lamb's Grill"}, "type": "Feature"}, {"geometry": {"coordinates": [-111.9044258, 40.7629808], "type": "Point"}, "id": 2327628392, "properties": {"amenity": "restaurant", "cuisine": "mexican", "name": "Rio Grande Cafe"}, "type": "Feature"}, {"geometry": {"coordinates": [-111.8851273, 40.7581943], "type": "Point"}, "id": 2327628409, "properties": {"amenity": "restaurant", "cuisine": "italian", "name": "Canella's"}, "type": "Feature"}, {"geometry": {"coordinates": [-111.8756913, 40.7603356], "type": "Point"}, "id": 2327642665, "properties": {"amenity": "restaurant", "cuisine": "mexican", "name": "Cafe Rio"}, "type": "Feature"}, {"geometry": {"coordinates": [-111.8722205, 40.7603844], "type": "Point"}, "id": 2327642680, "properties": {"amenity": "restaurant", "cuisine": "american", "name": "Chili's"}, "type": "Feature"}, {"geometry": {"coordinates": [-111.8744468, 40.7609776], "type": "Point"}, "id": 2327642683, "properties": {"amenity": "restaurant", "cuisine": "burger", "name": "Burger King", "source": "Bing"}, "type": "Feature"}, {"geometry": {"coordinates": [-111.9032081, 40.7656542], "type": "Point"}, "id": 2327648123, "properties": {"amenity": "restaurant", "cuisine": "mexican", "name": "Costa Vida"}, "type": "Feature"}, {"geometry": {"coordinates": [-111.903243, 40.7659326], "type": "Point"}, "id": 2327648125, "properties": {"amenity": "restaurant", "cuisine": "american", "name": "Applebee's"}, "type": "Feature"}, {"geometry": {"coordinates": [-111.9030659, 40.7659021], "type": "Point"}, "id": 2327648126, "properties": {"amenity": "restaurant", "cuisine": "pizza", "name": "California Pizza Kitchen"}, "type": "Feature"}, {"geometry": {"coordinates": [-111.9029962, 40.7654511], "type": "Point"}, "id": 2327648127, "properties": {"amenity": "restaurant", "cuisine": "italian", "name": "La Jolla Groves"}, "type": "Feature"}, {"geometry": {"coordinates": [-111.9031169, 40.7659732], "type": "Point"}, "id": 2327648128, "properties": {"amenity": "restaurant", "cuisine": "steak_house", "name": "Tucano's Brazilian Grill"}, "type": "Feature"}, {"geometry": {"coordinates": [-111.9032081, 40.7656542], "type": "Point"}, "id": 2327648129, "properties": {"amenity": "restaurant", "cuisine": "mexican", "name": "Costa Vida"}, "type": "Feature"}, {"geometry": {"coordinates": [-111.903243, 40.7659326], "type": "Point"}, "id": 2327648131, "properties": {"amenity": "restaurant", "cuisine": "american", "name": "Applebee's"}, "type": "Feature"}, {"geometry": {"coordinates": [-111.9030659, 40.7659021], "type": "Point"}, "id": 2327648132, "properties": {"amenity": "restaurant", "cuisine": "pizza", "name": "California Pizza Kitchen"}, "type": "Feature"}, {"geometry": {"coordinates": [-111.9029962, 40.7654511], "type": "Point"}, "id": 2327648133, "properties": {"amenity": "restaurant", "cuisine": "italian", "name": "La Jolla Groves"}, "type": "Feature"}, {"geometry": {"coordinates": [-111.9031169, 40.7659732], "type": "Point"}, "id": 2327648134, "properties": {"amenity": "restaurant", "cuisine": "sandwich", "name": "Tucano's Brazilian Grill"}, "type": "Feature"}, {"geometry": {"coordinates": [-111.8892445, 40.7682992], "type": "Point"}, "id": 2327662142, "properties": {"amenity": "restaurant", "cuisine": "burger", "name": "Johnny Rockets", "source": "Bing"}, "type": "Feature"}, {"geometry": {"coordinates": [-111.8896093, 40.7676044], "type": "Point"}, "id": 2327662145, "properties": {"amenity": "restaurant", "cuisine": "american", "name": "The Cheesecake Factory", "source": "Bing"}, "type": "Feature"}, {"geometry": {"coordinates": [-111.8887563, 40.7686282], "type": "Point"}, "id": 2327662149, "properties": {"amenity": "restaurant", "cuisine": "mexican", "name": "Taste of Red Iguana"}, "type": "Feature"}, {"geometry": {"coordinates": [-111.9042327, 40.7652256], "type": "Point"}, "id": 2327662152, "properties": {"amenity": "restaurant", "cuisine": "chicken", "name": "Wing Nuts"}, "type": "Feature"}, {"geometry": {"coordinates": [-111.9038733, 40.7656542], "type": "Point"}, "id": 2327662157, "properties": {"amenity": "restaurant", "cuisine": "sushi", "name": "Happy Sumo Sushi"}, "type": "Feature"}, {"geometry": {"coordinates": [-111.9036399, 40.768937], "type": "Point"}, "id": 2327662158, "properties": {"amenity": "restaurant", "cuisine": "steak_house", "name": "Flemming's Prime Steakhouse"}, "type": "Feature"}, {"geometry": {"coordinates": [-111.903487, 40.7656624], "type": "Point"}, "id": 2327662159, "properties": {"amenity": "restaurant", "cuisine": "asian", "name": "Rumbi's Island Grill"}, "type": "Feature"}, {"geometry": {"coordinates": [-111.8889361, 40.7686018], "type": "Point"}, "id": 2327662162, "properties": {"amenity": "restaurant", "cuisine": "greek", "name": "Mykonos"}, "type": "Feature"}, {"geometry": {"coordinates": [-111.8930398, 40.769132], "type": "Point"}, "id": 2327662163, "properties": {"amenity": "restaurant", "cuisine": "american", "name": "Blue Lemon"}, "type": "Feature"}, {"geometry": {"coordinates": [-111.889116, 40.7687079], "type": "Point"}, "id": 2327662164, "properties": {"amenity": "restaurant", "cuisine": "sandwich", "name": "Kneaders"}, "type": "Feature"}, {"geometry": {"coordinates": [-111.8898051, 40.7690975], "type": "Point"}, "id": 2327662165, "properties": {"amenity": "restaurant", "cuisine": "ice_cream", "name": "Farr's Fresh Cafe and Creamery"}, "type": "Feature"}, {"geometry": {"coordinates": [-111.888861, 40.7686445], "type": "Point"}, "id": 2327662168, "properties": {"amenity": "restaurant", "cuisine": "sandwich", "name": "Bocata"}, "type": "Feature"}, {"geometry": {"coordinates": [-111.9036748, 40.7656685], "type": "Point"}, "id": 2327662170, "properties": {"amenity": "restaurant", "cuisine": "mexican", "name": "Z Teja's"}, "type": "Feature"}, {"geometry": {"coordinates": [-111.9042354, 40.7656481], "type": "Point"}, "id": 2327662171, "properties": {"amenity": "restaurant", "cuisine": "sandwich", "name": "Jason's Deli"}, "type": "Feature"}, {"geometry": {"coordinates": [-111.9043775, 40.7663388], "type": "Point"}, "id": 2327662172, "properties": {"amenity": "restaurant", "cuisine": "pizza", "name": "Malawi's Pizza"}, "type": "Feature"}, {"geometry": {"coordinates": [-111.8895855, 40.7626133], "type": "Point"}, "id": 2327670185, "properties": {"amenity": "restaurant", "cuisine": "burger", "name": "Rich's", "source": "Bing"}, "type": "Feature"}, {"geometry": {"coordinates": [-111.886318, 40.7647713], "type": "Point"}, "id": 2327670190, "properties": {"amenity": "restaurant", "cuisine": "pizza", "name": "Este Pizza"}, "type": "Feature"}, {"geometry": {"coordinates": [-111.8952992, 40.7640577], "type": "Point"}, "id": 2327680508, "properties": {"amenity": "restaurant", "cuisine": "steak_house", "name": "Christopher's Seafood and Prime Steakhouse"}, "type": "Feature"}, {"geometry": {"coordinates": [-111.897134, 40.763385], "type": "Point"}, "id": 2327680509, "properties": {"amenity": "restaurant", "cuisine": "pizza", "name": "Settebello"}, "type": "Feature"}, {"geometry": {"coordinates": [-111.9000923, 40.763046], "type": "Point"}, "id": 2327680510, "properties": {"amenity": "restaurant", "cuisine": "sandwich", "name": "Tony Caputo's Market and Deli"}, "type": "Feature"}, {"geometry": {"coordinates": [-111.8970989, 40.7636291], "type": "Point"}, "id": 2327680512, "properties": {"amenity": "restaurant", "cuisine": "american", "name": "Red Rock Brewing"}, "type": "Feature"}, {"geometry": {"coordinates": [-111.9029005, 40.7626113], "type": "Point"}, "id": 2327680513, "properties": {"amenity": "restaurant", "cuisine": "american", "name": "Iggy's Sports Grill"}, "type": "Feature"}, {"geometry": {"coordinates": [-111.8957069, 40.7625666], "type": "Point"}, "id": 2327680517, "properties": {"amenity": "restaurant", "cuisine": "american", "name": "Squatter's Pub"}, "type": "Feature"}, {"geometry": {"coordinates": [-111.854038, 40.609868], "type": "Point"}, "id": 2328268825, "properties": {"amenity": "restaurant", "cuisine": "steak_house", "name": "Outback Steakhouse"}, "type": "Feature"}, {"geometry": {"coordinates": [-111.8580774, 40.6152068], "type": "Point"}, "id": 2328268826, "properties": {"amenity": "restaurant", "cuisine": "american", "name": "Sweet Tomatos"}, "type": "Feature"}, {"geometry": {"coordinates": [-111.8576, 40.6146244], "type": "Point"}, "id": 2328268830, "properties": {"amenity": "restaurant", "cuisine": "american", "name": "IHOP"}, "type": "Feature"}, {"geometry": {"coordinates": [-111.8557922, 40.6121689], "type": "Point"}, "id": 2328268832, "properties": {"amenity": "restaurant", "cuisine": "american", "name": "Iggy's Sports Grill"}, "type": "Feature"}, {"geometry": {"coordinates": [-111.8886798, 40.6341895], "type": "Point"}, "id": 2328395967, "properties": {"amenity": "restaurant", "cuisine": "italian", "name": "Olive Garden"}, "type": "Feature"}, {"geometry": {"coordinates": [-111.8886584, 40.6338069], "type": "Point"}, "id": 2328395975, "properties": {"amenity": "restaurant", "cuisine": "american", "name": "Chuck-a-Rama"}, "type": "Feature"}, {"geometry": {"coordinates": [-111.8859762, 40.6351828], "type": "Point"}, "id": 2328395979, "properties": {"amenity": "restaurant", "cuisine": "american", "name": "Red Rock Brewing"}, "type": "Feature"}, {"geometry": {"coordinates": [-111.8821996, 40.6322029], "type": "Point"}, "id": 2328395989, "properties": {"amenity": "restaurant", "cuisine": "seafood", "name": "Red Lobster"}, "type": "Feature"}, {"geometry": {"coordinates": [-111.881234, 40.6322761], "type": "Point"}, "id": 2328395993, "properties": {"amenity": "restaurant", "cuisine": "burger", "name": "Red Robin", "source": "MapQuest Open Aerial"}, "type": "Feature"}, {"geometry": {"coordinates": [-111.8879395, 40.6353131], "type": "Point"}, "id": 2328396014, "properties": {"amenity": "restaurant", "cuisine": "american", "name": "The Cheesecake Factory"}, "type": "Feature"}, {"geometry": {"coordinates": [-111.8903857, 40.6263891], "type": "Point"}, "id": 2328396030, "properties": {"amenity": "restaurant", "cuisine": "mexican", "name": "Su Casa"}, "type": "Feature"}, {"geometry": {"coordinates": [-111.8870276, 40.6353457], "type": "Point"}, "id": 2328396038, "properties": {"amenity": "restaurant", "cuisine": "pizza", "name": "California Pizza Kitchen"}, "type": "Feature"}, {"geometry": {"coordinates": [-111.8887013, 40.6326914], "type": "Point"}, "id": 2328396047, "properties": {"amenity": "restaurant", "cuisine": "italian", "name": "Macaroni Grill"}, "type": "Feature"}, {"geometry": {"coordinates": [-111.8834407, 40.7609168], "type": "Point"}, "id": 2328421315, "properties": {"amenity": "restaurant", "cuisine": "chinese", "name": "Charlie Chow's Dragon Grill"}, "type": "Feature"}, {"geometry": {"coordinates": [-111.8836928, 40.7608802], "type": "Point"}, "id": 2328421316, "properties": {"amenity": "restaurant", "cuisine": "american", "name": "Stoneground"}, "type": "Feature"}, {"geometry": {"coordinates": [-111.8929715, 40.7619193], "type": "Point"}, "id": 2328421321, "properties": {"amenity": "restaurant", "cuisine": "steak_house", "name": "New Yorker"}, "type": "Feature"}, {"geometry": {"coordinates": [-111.8718749, 40.7568408], "type": "Point"}, "id": 2328430854, "properties": {"amenity": "restaurant", "cuisine": "steak_house", "name": "Rodizio Grill"}, "type": "Feature"}, {"geometry": {"coordinates": [-111.8729907, 40.7567677], "type": "Point"}, "id": 2328430855, "properties": {"amenity": "restaurant", "cuisine": "italian", "name": "Old Spaghetti Factory"}, "type": "Feature"}, {"geometry": {"coordinates": [-111.8935476, 40.7646557], "type": "Point"}, "id": 2328438446, "properties": {"amenity": "restaurant", "cuisine": "italian", "name": "Olive Garden"}, "type": "Feature"}, {"geometry": {"coordinates": [-111.8942691, 40.7631097], "type": "Point"}, "id": 2328438447, "properties": {"amenity": "restaurant", "cuisine": "italian", "name": "Macaroni Grill"}, "type": "Feature"}, {"geometry": {"coordinates": [-111.8936764, 40.7639244], "type": "Point"}, "id": 2328438448, "properties": {"amenity": "restaurant", "cuisine": "steak_house", "name": "Spencers for Steaks and Chops"}, "type": "Feature"}, {"geometry": {"coordinates": [-111.8936227, 40.7632174], "type": "Point"}, "id": 2328438449, "properties": {"amenity": "restaurant", "cuisine": "steak_house", "name": "Ruth's Chris Steakhouse"}, "type": "Feature"}, {"geometry": {"coordinates": [-111.8706212, 40.6207796], "type": "Point"}, "id": 2328555470, "properties": {"amenity": "restaurant", "cuisine": "sandwich", "name": "Kneader's", "source": "Bing"}, "type": "Feature"}, {"geometry": {"coordinates": [-111.8656591, 40.6181126], "type": "Point"}, "id": 2328555474, "properties": {"amenity": "restaurant", "cuisine": "mexican", "name": "La Puente"}, "type": "Feature"}, {"geometry": {"coordinates": [-111.8663833, 40.6218342], "type": "Point"}, "id": 2328555482, "properties": {"amenity": "restaurant", "cuisine": "american", "name": "Hoppers"}, "type": "Feature"}, {"geometry": {"coordinates": [-111.8657932, 40.6176891], "type": "Point"}, "id": 2328555486, "properties": {"amenity": "restaurant", "name": "Belgian Waffle"}, "type": "Feature"}, {"geometry": {"coordinates": [-111.7909542, 40.619045], "type": "Point"}, "id": 2328572734, "properties": {"amenity": "restaurant", "cuisine": "american", "name": "Porcupine Grill"}, "type": "Feature"}, {"geometry": {"coordinates": [-111.8907197, 40.7615669], "type": "Point"}, "id": 2328963023, "properties": {"amenity": "restaurant", "cuisine": "sandwich", "name": "Boston Deli"}, "type": "Feature"}, {"geometry": {"coordinates": [-111.8959339, 40.7647605], "type": "Point"}, "id": 2328963964, "properties": {"amenity": "restaurant", "cuisine": "sandwich", "name": "Toasters"}, "type": "Feature"}, {"geometry": {"coordinates": [-111.9234144, 40.6092525], "type": "Point"}, "id": 2330187915, "properties": {"amenity": "restaurant", "cuisine": "american", "name": "Archibald's"}, "type": "Feature"}, {"geometry": {"coordinates": [-111.8343631, 40.6400687], "type": "Point"}, "id": 2330193163, "properties": {"amenity": "restaurant", "cuisine": "Indian", "name": "Spice Bistro"}, "type": "Feature"}, {"geometry": {"coordinates": [-111.8350708, 40.6258712], "type": "Point"}, "id": 2330197261, "properties": {"amenity": "restaurant", "cuisine": "american", "name": "Blue Lemon"}, "type": "Feature"}, {"geometry": {"coordinates": [-111.8694425, 40.7603783], "type": "Point"}, "id": 2330639050, "properties": {"amenity": "restaurant", "cuisine": "american", "name": "Chuck-a-Rama"}, "type": "Feature"}, {"geometry": {"coordinates": [-111.868713, 40.7609309], "type": "Point"}, "id": 2330639052, "properties": {"amenity": "restaurant", "cuisine": "pizza", "name": "Pizza Hut"}, "type": "Feature"}, {"geometry": {"coordinates": [-111.8648693, 40.7603478], "type": "Point"}, "id": 2330639054, "properties": {"amenity": "restaurant", "cuisine": "american", "name": "Village Inn"}, "type": "Feature"}, {"geometry": {"coordinates": [-111.8906449, 40.7626134], "type": "Point"}, "id": 2330697651, "properties": {"amenity": "restaurant", "cuisine": "american", "name": "Judge Cafe and Grill"}, "type": "Feature"}, {"geometry": {"coordinates": [-111.8897787, 40.762599], "type": "Point"}, "id": 2330697658, "properties": {"amenity": "restaurant", "cuisine": "sandwich", "name": "Toasters"}, "type": "Feature"}, {"geometry": {"coordinates": [-111.9122287, 40.7711918], "type": "Point"}, "id": 2330703259, "properties": {"amenity": "restaurant", "cuisine": "american", "name": "Leatherby's Family Creamery"}, "type": "Feature"}, {"geometry": {"coordinates": [-111.9396731, 40.7722821], "type": "Point"}, "id": 2330720185, "properties": {"amenity": "restaurant", "cuisine": "chinese", "name": "China Delight"}, "type": "Feature"}, {"geometry": {"coordinates": [-111.9396632, 40.7727291], "type": "Point"}, "id": 2330720192, "properties": {"amenity": "restaurant", "cuisine": "burger", "name": "Apollo Burger", "source": "Bing"}, "type": "Feature"}, {"geometry": {"coordinates": [-111.8648972, 40.6215546], "type": "Point"}, "id": 2330759096, "properties": {"amenity": "restaurant", "cuisine": "international", "name": "Rumbi's"}, "type": "Feature"}, {"geometry": {"coordinates": [-111.8619855, 40.6218946], "type": "Point"}, "id": 2330759105, "properties": {"amenity": "restaurant", "cuisine": "sandwich", "name": "Melty Way"}, "type": "Feature"}, {"geometry": {"coordinates": [-111.8613203, 40.6220493], "type": "Point"}, "id": 2330759129, "properties": {"amenity": "restaurant", "cuisine": "american", "name": "Dickey's Barbeque Pit"}, "type": "Feature"}, {"geometry": {"coordinates": [-111.7980951, 40.6086647], "type": "Point"}, "id": 2330791448, "properties": {"amenity": "restaurant", "cuisine": "chinese", "name": "Dragon Isle"}, "type": "Feature"}, {"geometry": {"coordinates": [-111.8633552, 40.5847357], "type": "Point"}, "id": 2330803765, "properties": {"amenity": "restaurant", "cuisine": "burger", "name": "Salt City Burger", "source": "Bing"}, "type": "Feature"}, {"geometry": {"coordinates": [-111.8621541, 40.5820652], "type": "Point"}, "id": 2330803793, "properties": {"amenity": "restaurant", "cuisine": "mexican", "name": "Cafe Rio"}, "type": "Feature"}, {"geometry": {"coordinates": [-111.8726837, 40.582562], "type": "Point"}, "id": 2330811963, "properties": {"amenity": "restaurant", "cuisine": "italian", "name": "Tin Roof Grill"}, "type": "Feature"}, {"geometry": {"coordinates": [-111.8649348, 40.6228408], "type": "Point"}, "id": 2330811976, "properties": {"amenity": "restaurant", "cuisine": "italian", "name": "Bucca di Beppo"}, "type": "Feature"}, {"geometry": {"coordinates": [-111.8869242, 40.656668], "type": "Point"}, "id": 2330839401, "properties": {"amenity": "restaurant", "cuisine": "international", "name": "Rumbi Island Grill"}, "type": "Feature"}, {"geometry": {"coordinates": [-111.8878841, 40.657498], "type": "Point"}, "id": 2330839406, "properties": {"amenity": "restaurant", "cuisine": "french", "name": "Mimi's Cafe"}, "type": "Feature"}, {"geometry": {"coordinates": [-111.8882765, 40.5819802], "type": "Point"}, "id": 2330869331, "properties": {"amenity": "restaurant", "cuisine": "steak_house", "name": "Ruby River Steakhouse"}, "type": "Feature"}, {"geometry": {"coordinates": [-111.8885662, 40.5816502], "type": "Point"}, "id": 2330869332, "properties": {"amenity": "restaurant", "cuisine": "seafood", "name": "Joe's Crab Shack"}, "type": "Feature"}, {"geometry": {"coordinates": [-111.9859308, 40.6107575], "type": "Point"}, "id": 2330912929, "properties": {"amenity": "restaurant", "cuisine": "sandwich", "name": "Kneaders"}, "type": "Feature"}, {"geometry": {"coordinates": [-111.9772093, 40.6197241], "type": "Point"}, "id": 2330937733, "properties": {"amenity": "restaurant", "cuisine": "american", "name": "Chili's"}, "type": "Feature"}, {"geometry": {"coordinates": [-111.9795804, 40.6206036], "type": "Point"}, "id": 2330937735, "properties": {"amenity": "restaurant", "cuisine": "american", "name": "IHOP"}, "type": "Feature"}, {"geometry": {"coordinates": [-111.9771342, 40.6191337], "type": "Point"}, "id": 2330937736, "properties": {"amenity": "restaurant", "cuisine": "seafood", "name": "Joe's Crab Shack"}, "type": "Feature"}, {"geometry": {"coordinates": [-111.9796501, 40.6197078], "type": "Point"}, "id": 2330937743, "properties": {"amenity": "restaurant", "cuisine": "american", "name": "Black Bear Diner"}, "type": "Feature"}, {"geometry": {"coordinates": [-111.9796072, 40.6191459], "type": "Point"}, "id": 2330937749, "properties": {"amenity": "restaurant", "cuisine": "american", "name": "Iggy's Sports Grill"}, "type": "Feature"}, {"geometry": {"coordinates": [-111.978883, 40.6194961], "type": "Point"}, "id": 2330937752, "properties": {"amenity": "restaurant", "cuisine": "international", "name": "Rumbi's Island Grill"}, "type": "Feature"}, {"geometry": {"coordinates": [-111.979001, 40.6190807], "type": "Point"}, "id": 2330937766, "properties": {"amenity": "restaurant", "cuisine": "american", "name": "Famous Dave's"}, "type": "Feature"}, {"geometry": {"coordinates": [-111.9772361, 40.6204855], "type": "Point"}, "id": 2330937768, "properties": {"amenity": "restaurant", "cuisine": "italian", "name": "Johnny Carino's "}, "type": "Feature"}, {"geometry": {"coordinates": [-111.9805084, 40.6124025], "type": "Point"}, "id": 2330937781, "properties": {"amenity": "restaurant", "cuisine": "american", "name": "Noodles and Co."}, "type": "Feature"}, {"geometry": {"coordinates": [-111.9817154, 40.6097881], "type": "Point"}, "id": 2330937792, "properties": {"amenity": "restaurant", "cuisine": "mexican", "name": "Costa Vida"}, "type": "Feature"}, {"geometry": {"coordinates": [-111.9796716, 40.610008], "type": "Point"}, "id": 2330937793, "properties": {"amenity": "restaurant", "cuisine": "american", "name": "Applebee's"}, "type": "Feature"}, {"geometry": {"coordinates": [-111.9787972, 40.6197363], "type": "Point"}, "id": 2330937794, "properties": {"amenity": "restaurant", "cuisine": "steak_house", "name": "Tepanyaki Japanese Steakhouse"}, "type": "Feature"}, {"geometry": {"coordinates": [-111.9805513, 40.6121378], "type": "Point"}, "id": 2330937798, "properties": {"amenity": "restaurant", "cuisine": "sandwich", "name": "Zupa's"}, "type": "Feature"}, {"geometry": {"coordinates": [-111.9822197, 40.6105496], "type": "Point"}, "id": 2330937799, "properties": {"amenity": "restaurant", "cuisine": "american", "name": "Dickey's Barbeque Pit"}, "type": "Feature"}, {"geometry": {"coordinates": [-111.8879344, 40.6366631], "type": "Point"}, "id": 2332260230, "properties": {"amenity": "restaurant", "cuisine": "italian", "name": "Brio Tuscan Grill", "source": "Bing"}, "type": "Feature"}, {"geometry": {"coordinates": [-111.8885899, 40.6375213], "type": "Point"}, "id": 2332260258, "properties": {"amenity": "restaurant", "cuisine": "american", "name": "Applebee's"}, "type": "Feature"}, {"geometry": {"coordinates": [-111.8733201, 40.6211548], "type": "Point"}, "id": 2332286262, "properties": {"amenity": "restaurant", "cuisine": "american", "name": "Golden Corral"}, "type": "Feature"}, {"geometry": {"coordinates": [-111.8901993, 40.6215457], "type": "Point"}, "id": 2332286309, "properties": {"amenity": "restaurant", "cuisine": "american", "name": "Hooters"}, "type": "Feature"}, {"geometry": {"coordinates": [-111.8527982, 40.6254677], "type": "Point"}, "id": 2332294829, "properties": {"amenity": "restaurant", "cuisine": "pizza", "name": "Pizzaria Limone"}, "type": "Feature"}, {"geometry": {"coordinates": [-111.8391082, 40.6241729], "type": "Point"}, "id": 2332297479, "properties": {"amenity": "restaurant", "cuisine": "italian", "name": "Cucina Vanina"}, "type": "Feature"}, {"geometry": {"coordinates": [-111.8531772, 40.7247772], "type": "Point"}, "id": 2332323385, "properties": {"amenity": "restaurant", "cuisine": "steak_house", "name": "Sizzler "}, "type": "Feature"}, {"geometry": {"coordinates": [-111.852115, 40.7261045], "type": "Point"}, "id": 2332328927, "properties": {"amenity": "restaurant", "cuisine": "international", "name": "The Dodo"}, "type": "Feature"}, {"geometry": {"coordinates": [-111.8116619, 40.7200326], "type": "Point"}, "id": 2332328939, "properties": {"amenity": "restaurant", "cuisine": "american", "name": "Cowboy Grub"}, "type": "Feature"}, {"geometry": {"coordinates": [-111.8620501, 40.7255252], "type": "Point"}, "id": 2332662880, "properties": {"amenity": "restaurant", "cuisine": "mexican", "name": "Chipotle"}, "type": "Feature"}, {"geometry": {"coordinates": [-111.8616933, 40.7251105], "type": "Point"}, "id": 2332662884, "properties": {"amenity": "restaurant", "cuisine": "asian", "name": "Pei Wei"}, "type": "Feature"}, {"geometry": {"coordinates": [-111.8716497, 40.7251593], "type": "Point"}, "id": 2332662889, "properties": {"amenity": "restaurant", "cuisine": "american", "name": "Dee's"}, "type": "Feature"}, {"geometry": {"coordinates": [-111.8605159, 40.7255394], "type": "Point"}, "id": 2332662892, "properties": {"amenity": "restaurant", "cuisine": "pizza", "name": "Salt Lake Pizza and Pasta"}, "type": "Feature"}, {"geometry": {"coordinates": [-111.8623532, 40.7252162], "type": "Point"}, "id": 2332662900, "properties": {"amenity": "restaurant", "cuisine": "sandwich", "name": "Paradise Bakery"}, "type": "Feature"}, {"geometry": {"coordinates": [-111.8687041, 40.7251768], "type": "Point"}, "id": 2332662911, "properties": {"amenity": "restaurant", "cuisine": "american", "name": "Original Pancake House"}, "type": "Feature"}, {"geometry": {"coordinates": [-111.8695147, 40.7257041], "type": "Point"}, "id": 2332662914, "properties": {"amenity": "restaurant", "cuisine": "pizza", "name": "Pizza Hut"}, "type": "Feature"}, {"geometry": {"coordinates": [-111.8542825, 40.7217718], "type": "Point"}, "id": 2332670440, "properties": {"amenity": "restaurant", "cuisine": "burger", "name": "Training Table"}, "type": "Feature"}, {"geometry": {"coordinates": [-111.8904071, 40.5621006], "type": "Point"}, "id": 2332676877, "properties": {"amenity": "restaurant", "cuisine": "sandwich", "name": "Paradise Bakery"}, "type": "Feature"}, {"geometry": {"coordinates": [-111.8960129, 40.5599957], "type": "Point"}, "id": 2332676879, "properties": {"amenity": "restaurant", "name": "Texas Roadhouse"}, "type": "Feature"}, {"geometry": {"coordinates": [-111.8904822, 40.5625591], "type": "Point"}, "id": 2332676883, "properties": {"amenity": "restaurant", "cuisine": "mexican", "name": "Chipotle"}, "type": "Feature"}, {"geometry": {"coordinates": [-111.8942855, 40.5593191], "type": "Point"}, "id": 2332676884, "properties": {"amenity": "restaurant", "cuisine": "american", "name": "TGI Fridays"}, "type": "Feature"}, {"geometry": {"coordinates": [-111.8902488, 40.562555], "type": "Point"}, "id": 2332676885, "properties": {"amenity": "restaurant", "cuisine": "burger", "name": "Five Guys", "source": "Bing"}, "type": "Feature"}, {"geometry": {"coordinates": [-111.8904741, 40.5633314], "type": "Point"}, "id": 2332676886, "properties": {"amenity": "restaurant", "cuisine": "international", "name": "Rumbi's Island Grill"}, "type": "Feature"}, {"geometry": {"coordinates": [-111.8913351, 40.5592376], "type": "Point"}, "id": 2332676887, "properties": {"amenity": "restaurant", "cuisine": "seafood", "name": "McGraths"}, "type": "Feature"}, {"geometry": {"coordinates": [-111.8913136, 40.5613813], "type": "Point"}, "id": 2332676889, "properties": {"amenity": "restaurant", "cuisine": "international", "name": "Mimi's Cafe"}, "type": "Feature"}, {"geometry": {"coordinates": [-111.8913083, 40.5684477], "type": "Point"}, "id": 2332676894, "properties": {"amenity": "restaurant", "name": "Sweet Tomatoes"}, "type": "Feature"}, {"geometry": {"coordinates": [-111.8915604, 40.588518], "type": "Point"}, "id": 2332676895, "properties": {"amenity": "restaurant", "cuisine": "steak_house", "name": "Sizzler"}, "type": "Feature"}, {"geometry": {"coordinates": [-111.8904956, 40.5630318], "type": "Point"}, "id": 2332676896, "properties": {"amenity": "restaurant", "cuisine": "asian", "name": "Pei Wei Asian Diner"}, "type": "Feature"}, {"geometry": {"coordinates": [-111.8912455, 40.5617428], "type": "Point"}, "id": 2332676901, "properties": {"amenity": "restaurant", "cuisine": "american", "name": "Chili's"}, "type": "Feature"}, {"geometry": {"coordinates": [-111.8904392, 40.5631745], "type": "Point"}, "id": 2332676903, "properties": {"amenity": "restaurant", "cuisine": "mexican", "name": "Costa Vida"}, "type": "Feature"}, {"geometry": {"coordinates": [-111.8955408, 40.5594006], "type": "Point"}, "id": 2332676904, "properties": {"amenity": "restaurant", "cuisine": "american", "name": "Village Inn"}, "type": "Feature"}, {"geometry": {"coordinates": [-111.8912815, 40.5599794], "type": "Point"}, "id": 2332676905, "properties": {"amenity": "restaurant", "cuisine": "italian", "name": "Olive Garden"}, "type": "Feature"}, {"geometry": {"coordinates": [-111.8952555, 40.5581544], "type": "Point"}, "id": 2332681375, "properties": {"amenity": "restaurant", "cuisine": "american", "name": "Iggy's Sports Grill"}, "type": "Feature"}, {"geometry": {"coordinates": [-111.8915399, 40.5469311], "type": "Point"}, "id": 2332682200, "properties": {"amenity": "restaurant", "cuisine": "american", "name": "Buffalo Wild Wings"}, "type": "Feature"}, {"geometry": {"coordinates": [-111.9558359, 40.6925463], "type": "Point"}, "id": 2333199050, "properties": {"amenity": "restaurant", "cuisine": "burger", "name": "Red Robin", "source": "Bing"}, "type": "Feature"}, {"geometry": {"coordinates": [-111.9589794, 40.6969634], "type": "Point"}, "id": 2333199052, "properties": {"amenity": "restaurant", "cuisine": "pizza", "name": "Pizza Hut"}, "type": "Feature"}, {"geometry": {"coordinates": [-111.957515, 40.6962801], "type": "Point"}, "id": 2333199054, "properties": {"amenity": "restaurant", "cuisine": "italian", "name": "Olive Garden"}, "type": "Feature"}, {"geometry": {"coordinates": [-111.9575793, 40.6953446], "type": "Point"}, "id": 2333199062, "properties": {"amenity": "restaurant", "cuisine": "american", "name": "TGI Fridays"}, "type": "Feature"}, {"geometry": {"coordinates": [-111.9575257, 40.6924406], "type": "Point"}, "id": 2333199073, "properties": {"amenity": "restaurant", "cuisine": "chicken", "name": "Wingers"}, "type": "Feature"}, {"geometry": {"coordinates": [-111.9576062, 40.694035], "type": "Point"}, "id": 2333199074, "properties": {"amenity": "restaurant", "cuisine": "pizza", "name": "NYPD Pizza"}, "type": "Feature"}, {"geometry": {"coordinates": [-111.9569785, 40.6941732], "type": "Point"}, "id": 2333199077, "properties": {"amenity": "restaurant", "cuisine": "sandwich", "name": "Zupa's"}, "type": "Feature"}, {"geometry": {"coordinates": [-111.9575954, 40.6949094], "type": "Point"}, "id": 2333199078, "properties": {"amenity": "restaurant", "cuisine": "american", "name": "Sonny Bryan's Smokehouse"}, "type": "Feature"}, {"geometry": {"coordinates": [-111.890287, 40.766983], "type": "Point"}, "id": 2333270263, "properties": {"amenity": "restaurant", "cuisine": "international", "name": "Martine Cafe and Tapas"}, "type": "Feature"}, {"geometry": {"coordinates": [-111.8930828, 40.7669019], "type": "Point"}, "id": 2333368646, "properties": {"amenity": "restaurant", "cuisine": "italian", "name": "Caffe Molise"}, "type": "Feature"}, {"geometry": {"coordinates": [-111.8934261, 40.7669141], "type": "Point"}, "id": 2333368648, "properties": {"amenity": "restaurant", "cuisine": "asian", "name": "Naked Fish Japanese Bistro"}, "type": "Feature"}, {"geometry": {"coordinates": [-111.892713, 40.7618717], "type": "Point"}, "id": 2333821058, "properties": {"amenity": "restaurant", "cuisine": "seafood", "name": "Market Street Grill"}, "type": "Feature"}, {"geometry": {"coordinates": [-111.8840901, 40.7516923], "type": "Point"}, "id": 2334077671, "properties": {"amenity": "restaurant", "cuisine": "sandwich", "name": "Moochie's Meatballs "}, "type": "Feature"}, {"geometry": {"coordinates": [-111.8046941, 40.6344715], "type": "Point"}, "id": 2334821360, "properties": {"amenity": "restaurant", "cuisine": "italian", "name": "Cafe Trio"}, "type": "Feature"}, {"geometry": {"coordinates": [-111.8064344, 40.6320146], "type": "Point"}, "id": 2334821368, "properties": {"amenity": "restaurant", "cuisine": "sandwich", "name": "Cafe Zupas"}, "type": "Feature"}, {"geometry": {"coordinates": [-111.8670205, 40.6467872], "type": "Point"}, "id": 2334833241, "properties": {"amenity": "restaurant", "cuisine": "greek", "name": "Greek Souvlaki"}, "type": "Feature"}, {"geometry": {"coordinates": [-111.8351831, 40.5792481], "type": "Point"}, "id": 2335597504, "properties": {"amenity": "restaurant", "cuisine": "american", "name": "Black Bear Diner"}, "type": "Feature"}, {"geometry": {"coordinates": [-111.8380048, 40.5796555], "type": "Point"}, "id": 2335597511, "properties": {"amenity": "restaurant", "cuisine": "pizza", "name": "Smokey Mountain Pizza"}, "type": "Feature"}, {"geometry": {"coordinates": [-111.8687644, 40.5799407], "type": "Point"}, "id": 2335635822, "properties": {"amenity": "restaurant", "cuisine": "burger", "name": "Olympus Burger", "source": "Bing"}, "type": "Feature"}, {"geometry": {"coordinates": [-111.9433202, 40.6527498], "type": "Point"}, "id": 2335652136, "properties": {"amenity": "restaurant", "cuisine": "steak_house", "name": "Texas Roadhouse"}, "type": "Feature"}, {"geometry": {"coordinates": [-111.9419094, 40.6541742], "type": "Point"}, "id": 2335697875, "properties": {"amenity": "restaurant", "cuisine": "american", "name": "Leatherby's Family Creamery"}, "type": "Feature"}, {"geometry": {"coordinates": [-111.9414963, 40.654105], "type": "Point"}, "id": 2335697879, "properties": {"amenity": "restaurant", "cuisine": "mexican", "name": "Cafe Rio"}, "type": "Feature"}, {"geometry": {"coordinates": [-111.9435026, 40.6457127], "type": "Point"}, "id": 2335837462, "properties": {"amenity": "restaurant", "cuisine": "seafood", "name": "Virg's"}, "type": "Feature"}, {"geometry": {"coordinates": [-111.9415553, 40.6522736], "type": "Point"}, "id": 2335837470, "properties": {"amenity": "restaurant", "cuisine": "burger", "name": "Apollo Burger", "source": "Bing"}, "type": "Feature"}, {"geometry": {"coordinates": [-111.9405307, 40.6481426], "type": "Point"}, "id": 2335837479, "properties": {"amenity": "restaurant", "cuisine": "american", "name": "Golden Corral"}, "type": "Feature"}, {"geometry": {"coordinates": [-111.9434328, 40.6466977], "type": "Point"}, "id": 2335837482, "properties": {"amenity": "restaurant", "cuisine": "italian", "name": "The Old Spaghetti Factory"}, "type": "Feature"}, {"geometry": {"coordinates": [-111.9424833, 40.6541457], "type": "Point"}, "id": 2335837493, "properties": {"amenity": "restaurant", "cuisine": "asian", "name": "Teriyaki Grill"}, "type": "Feature"}, {"geometry": {"coordinates": [-111.9345011, 40.6525667], "type": "Point"}, "id": 2335874851, "properties": {"amenity": "restaurant", "cuisine": "burger", "name": "Iceburg Drive In", "source": "Bing"}, "type": "Feature"}, {"geometry": {"coordinates": [-111.9887416, 40.6530423], "type": "Point"}, "id": 2336213597, "properties": {"amenity": "restaurant", "cuisine": "pizza", "name": "Domino's Pizza"}, "type": "Feature"}, {"geometry": {"coordinates": [-111.8632156, 40.5838071], "type": "Point"}, "id": 2336285278, "properties": {"amenity": "restaurant", "cuisine": "italian", "name": "Fratelli Ristorante"}, "type": "Feature"}, {"geometry": {"coordinates": [-111.8633873, 40.585176], "type": "Point"}, "id": 2336285305, "properties": {"amenity": "restaurant", "cuisine": "chinese", "name": "Panda Express"}, "type": "Feature"}, {"geometry": {"coordinates": [-111.8575401, 40.6134636], "type": "Point"}, "id": 2336285515, "properties": {"amenity": "restaurant", "cuisine": "asian", "name": "Asian Star"}, "type": "Feature"}, {"geometry": {"coordinates": [-111.8526318, 40.705916], "type": "Point"}, "id": 2336725529, "properties": {"amenity": "restaurant", "cuisine": "italian", "name": "Michelangelo Ristorante"}, "type": "Feature"}, {"geometry": {"coordinates": [-111.8594875, 40.6873453], "type": "Point"}, "id": 2336726045, "properties": {"amenity": "restaurant", "cuisine": "american", "name": "Marie Calendar's "}, "type": "Feature"}, {"geometry": {"coordinates": [-111.8533989, 40.6874308], "type": "Point"}, "id": 2336726048, "properties": {"amenity": "restaurant", "cuisine": "chinese", "name": "Dragon Diner"}, "type": "Feature"}, {"geometry": {"coordinates": [-111.8369463, 40.6661573], "type": "Point"}, "id": 2336726851, "properties": {"amenity": "restaurant", "cuisine": "sandwich", "name": "Honey Baked Ham"}, "type": "Feature"}, {"geometry": {"coordinates": [-111.8240931, 40.6689892], "type": "Point"}, "id": 2336726852, "properties": {"amenity": "restaurant", "cuisine": "sandwich", "name": "Great Harvest Bread"}, "type": "Feature"}, {"geometry": {"coordinates": [-111.8396285, 40.6643181], "type": "Point"}, "id": 2336726853, "properties": {"amenity": "restaurant", "cuisine": "burger", "name": "Training Table", "source": "Bing"}, "type": "Feature"}, {"geometry": {"coordinates": [-111.8365815, 40.6661491], "type": "Point"}, "id": 2336726857, "properties": {"amenity": "restaurant", "cuisine": "chinese", "name": "Ocean City"}, "type": "Feature"}, {"geometry": {"coordinates": [-111.8242395, 40.7246864], "type": "Point"}, "id": 2336728558, "properties": {"amenity": "restaurant", "cuisine": "italian", "name": "Rino's Italian Ristorante"}, "type": "Feature"}, {"geometry": {"coordinates": [-111.9010093, 40.6203086], "type": "Point"}, "id": 2337154724, "properties": {"amenity": "restaurant", "cuisine": "american", "name": "Denny's"}, "type": "Feature"}, {"geometry": {"coordinates": [-111.853899, 40.6250928], "type": "Point"}, "id": 2337154746, "properties": {"amenity": "restaurant", "cuisine": "sandwich", "name": "Subway"}, "type": "Feature"}, {"geometry": {"coordinates": [-111.9012185, 40.6209479], "type": "Point"}, "id": 2337154749, "properties": {"amenity": "restaurant", "cuisine": "american", "name": "Midvale Mining Co."}, "type": "Feature"}, {"geometry": {"coordinates": [-111.9124463, 40.6213713], "type": "Point"}, "id": 2337154760, "properties": {"amenity": "restaurant", "cuisine": "burger", "name": "Culvers", "source": "Bing"}, "type": "Feature"}, {"geometry": {"coordinates": [-111.8913105, 40.6197589], "type": "Point"}, "id": 2337154764, "properties": {"amenity": "restaurant", "cuisine": "mexican", "name": "El Farol"}, "type": "Feature"}, {"geometry": {"coordinates": [-111.8989333, 40.6208705], "type": "Point"}, "id": 2337154800, "properties": {"amenity": "restaurant", "cuisine": "mexican", "name": "Cafe Silvestre"}, "type": "Feature"}, {"geometry": {"coordinates": [-111.8663803, 40.6542216], "type": "Point"}, "id": 2337334737, "properties": {"amenity": "restaurant", "cuisine": "italian", "name": "Italian Village"}, "type": "Feature"}, {"geometry": {"coordinates": [-111.9014957, 40.7300426], "type": "Point"}, "id": 2337334742, "properties": {"amenity": "restaurant", "cuisine": "steak_house", "name": "Tepanyaki Steakhouse"}, "type": "Feature"}, {"geometry": {"coordinates": [-111.8878487, 40.7076278], "type": "Point"}, "id": 2337334768, "properties": {"amenity": "restaurant", "cuisine": "american", "name": "Village Inn"}, "type": "Feature"}, {"geometry": {"coordinates": [-111.8887928, 40.7000271], "type": "Point"}, "id": 2337334805, "properties": {"amenity": "restaurant", "cuisine": "burger", "name": "Crown Burger", "source": "Bing"}, "type": "Feature"}, {"geometry": {"coordinates": [-111.866422, 40.640633], "type": "Point"}, "id": 2337423531, "properties": {"amenity": "restaurant", "cuisine": "burger", "name": "Olympus Burger", "source": "Bing"}, "type": "Feature"}, {"geometry": {"coordinates": [-111.8879172, 40.6566529], "type": "Point"}, "id": 2337423532, "properties": {"amenity": "restaurant", "cuisine": "american", "name": "IHOP"}, "type": "Feature"}, {"geometry": {"coordinates": [-111.8879118, 40.657947], "type": "Point"}, "id": 2337423533, "properties": {"amenity": "restaurant", "cuisine": "american", "name": "Noodles and Co"}, "type": "Feature"}, {"geometry": {"coordinates": [-111.8656361, 40.6500497], "type": "Point"}, "id": 2337423534, "properties": {"amenity": "restaurant", "cuisine": "pizza", "name": "Pizza Hut"}, "type": "Feature"}, {"geometry": {"coordinates": [-111.9384265, 40.6972104], "type": "Point"}, "id": 2337475060, "properties": {"amenity": "restaurant", "cuisine": "burger", "name": "Carl's Jr", "source": "Bing"}, "type": "Feature"}, {"geometry": {"coordinates": [-111.9462747, 40.6970843], "type": "Point"}, "id": 2337475065, "properties": {"amenity": "restaurant", "cuisine": "greek", "name": "Greek Souvlaki"}, "type": "Feature"}, {"geometry": {"coordinates": [-111.9385123, 40.6980848], "type": "Point"}, "id": 2337475066, "properties": {"amenity": "restaurant", "cuisine": "steak_house", "name": "Sizzler"}, "type": "Feature"}, {"geometry": {"coordinates": [-111.8879568, 40.5279323], "type": "Point"}, "id": 2341218700, "properties": {"amenity": "restaurant", "cuisine": "american", "name": "Wing Nutz"}, "type": "Feature"}, {"geometry": {"coordinates": [-111.8888875, 40.5263278], "type": "Point"}, "id": 2341218703, "properties": {"amenity": "restaurant", "cuisine": "chinese", "name": "Panda Express"}, "type": "Feature"}, {"geometry": {"coordinates": [-111.8856393, 40.5269823], "type": "Point"}, "id": 2341218706, "properties": {"amenity": "restaurant", "cuisine": "american", "name": "Noodles and Co"}, "type": "Feature"}, {"geometry": {"coordinates": [-111.8845396, 40.5270108], "type": "Point"}, "id": 2341218709, "properties": {"amenity": "restaurant", "cuisine": "mexican", "name": "Costa Vida Fresh Mexican Grill"}, "type": "Feature"}, {"geometry": {"coordinates": [-111.8869104, 40.5263378], "type": "Point"}, "id": 2341218715, "properties": {"amenity": "restaurant", "cuisine": "mexican", "name": "Guadalahonky's Mexican"}, "type": "Feature"}, {"geometry": {"coordinates": [-111.8872004, 40.5271087], "type": "Point"}, "id": 2341218716, "properties": {"amenity": "restaurant", "cuisine": "american", "name": "Goodwood Barbeque"}, "type": "Feature"}, {"geometry": {"coordinates": [-111.8835687, 40.5270842], "type": "Point"}, "id": 2341218717, "properties": {"amenity": "restaurant", "cuisine": "burger", "name": "Astro Burger", "source": "Bing"}, "type": "Feature"}, {"geometry": {"coordinates": [-111.8879836, 40.525814], "type": "Point"}, "id": 2341218724, "properties": {"amenity": "restaurant", "cuisine": "italian", "name": "Fazoli's"}, "type": "Feature"}, {"geometry": {"coordinates": [-111.8830643, 40.5263318], "type": "Point"}, "id": 2341218725, "properties": {"amenity": "restaurant", "cuisine": "asian", "name": "Teriyaki Asian Grill"}, "type": "Feature"}, {"geometry": {"coordinates": [-111.8899121, 40.5258711], "type": "Point"}, "id": 2341218726, "properties": {"amenity": "restaurant", "cuisine": "american", "name": "Chuck-a-Rama"}, "type": "Feature"}, {"geometry": {"coordinates": [-111.879996, 40.5263339], "type": "Point"}, "id": 2341218728, "properties": {"amenity": "restaurant", "cuisine": "mexican", "name": "El Rancho Grande"}, "type": "Feature"}, {"geometry": {"coordinates": [-111.883102, 40.5264889], "type": "Point"}, "id": 2341218730, "properties": {"amenity": "restaurant", "cuisine": "mexican", "name": "Barbacoa"}, "type": "Feature"}, {"geometry": {"coordinates": [-111.8557542, 40.5271617], "type": "Point"}, "id": 2341218731, "properties": {"amenity": "restaurant", "cuisine": "pizza", "name": "Pier 49 Pizza"}, "type": "Feature"}, {"geometry": {"coordinates": [-111.88771, 40.5270883], "type": "Point"}, "id": 2341218734, "properties": {"amenity": "restaurant", "cuisine": "american", "name": "Applebee's"}, "type": "Feature"}, {"geometry": {"coordinates": [-111.8821042, 40.526391], "type": "Point"}, "id": 2341218736, "properties": {"amenity": "restaurant", "cuisine": "burger", "name": "Smash Burger", "source": "Bing"}, "type": "Feature"}, {"geometry": {"coordinates": [-111.8836518, 40.526077], "type": "Point"}, "id": 2341218737, "properties": {"amenity": "restaurant", "cuisine": "sandwich", "name": "Corner Bakery"}, "type": "Feature"}, {"geometry": {"coordinates": [-111.8557649, 40.5273778], "type": "Point"}, "id": 2341218740, "properties": {"amenity": "restaurant", "cuisine": "ice_cream", "name": "Golden Spoon"}, "type": "Feature"}, {"geometry": {"coordinates": [-111.8891664, 40.5252289], "type": "Point"}, "id": 2341218741, "properties": {"amenity": "restaurant", "cuisine": "mexican", "name": "La Hacienda"}, "type": "Feature"}, {"geometry": {"coordinates": [-111.8897512, 40.525129], "type": "Point"}, "id": 2341218742, "properties": {"amenity": "restaurant", "cuisine": "seafood", "name": "Virg's"}, "type": "Feature"}, {"geometry": {"coordinates": [-111.8273861, 40.7406771], "type": "Point"}, "id": 2341505155, "properties": {"amenity": "restaurant", "cuisine": "mexican", "name": "Costa Vida "}, "type": "Feature"}, {"geometry": {"coordinates": [-111.8262569, 40.7393094], "type": "Point"}, "id": 2341505156, "properties": {"amenity": "restaurant", "cuisine": "american", "name": "Red Butte Cafe"}, "type": "Feature"}, {"geometry": {"coordinates": [-111.8246315, 40.73809], "type": "Point"}, "id": 2341505159, "properties": {"amenity": "restaurant", "cuisine": "international", "name": "Five Alls"}, "type": "Feature"}, {"geometry": {"coordinates": [-111.8261898, 40.7409942], "type": "Point"}, "id": 2341505162, "properties": {"amenity": "restaurant", "cuisine": "burger", "name": "Red Robin", "source": "Bing"}, "type": "Feature"}, {"geometry": {"coordinates": [-111.8261042, 40.738721], "type": "Point"}, "id": 2341505167, "properties": {"amenity": "restaurant", "cuisine": "american", "name": "Mac Cool's Public House"}, "type": "Feature"}, {"geometry": {"coordinates": [-111.855574, 40.6996755], "type": "Point"}, "id": 2341509719, "properties": {"amenity": "restaurant", "cuisine": "mexican", "name": "La Frontera"}, "type": "Feature"}, {"geometry": {"coordinates": [-111.8512234, 40.7001716], "type": "Point"}, "id": 2341509721, "properties": {"amenity": "restaurant", "cuisine": "mexican", "name": "Tres Hombres Mexican Grill and Cantina"}, "type": "Feature"}, {"geometry": {"coordinates": [-111.8064413, 40.7001045], "type": "Point"}, "id": 2341509722, "properties": {"amenity": "restaurant", "cuisine": "burger", "name": "Shivers ", "source": "Bing"}, "type": "Feature"}, {"geometry": {"coordinates": [-111.8080962, 40.7002143], "type": "Point"}, "id": 2341509725, "properties": {"amenity": "restaurant", "cuisine": "american", "name": "Citris Grill"}, "type": "Feature"}, {"geometry": {"coordinates": [-111.8071655, 40.700072], "type": "Point"}, "id": 2341509727, "properties": {"amenity": "restaurant", "cuisine": "mexican", "name": "Cafe Silvestre"}, "type": "Feature"}, {"geometry": {"coordinates": [-111.8845113, 40.7582645], "type": "Point"}, "id": 2341511598, "properties": {"amenity": "restaurant", "name": "Thai Lotus"}, "type": "Feature"}, {"geometry": {"coordinates": [-111.9032288, 40.7662166], "type": "Point"}, "id": 2341520683, "properties": {"amenity": "restaurant", "cuisine": "american", "name": "Bout Time Pub and Grub"}, "type": "Feature"}, {"geometry": {"coordinates": [-111.8900057, 40.7675378], "type": "Point"}, "id": 2341520689, "properties": {"amenity": "restaurant", "cuisine": "italian", "name": "Brio Tuscan Grille"}, "type": "Feature"}, {"geometry": {"coordinates": [-111.8692608, 40.7690293], "type": "Point"}, "id": 2341520690, "properties": {"amenity": "restaurant", "cuisine": "asian", "name": "Sawadee Thai"}, "type": "Feature"}, {"geometry": {"coordinates": [-111.8580643, 40.6252988], "type": "Point"}, "id": 2342162966, "properties": {"amenity": "restaurant", "cuisine": "american", "name": "Famous Dave's"}, "type": "Feature"}, {"geometry": {"coordinates": [-111.8116249, 40.6374019], "type": "Point"}, "id": 2343330012, "properties": {"amenity": "restaurant", "cuisine": "international", "name": "Frank's"}, "type": "Feature"}, {"geometry": {"coordinates": [-111.898232, 40.7689678], "type": "Point"}, "id": 2345007626, "properties": {"amenity": "restaurant", "cuisine": "american", "name": "Copper Canyon"}, "type": "Feature"}, {"geometry": {"coordinates": [-111.8459563, 40.6873169], "type": "Point"}, "id": 2345092199, "properties": {"amenity": "restaurant", "cuisine": "italian", "name": "Robintino's"}, "type": "Feature"}, {"geometry": {"coordinates": [-111.8453823, 40.6859502], "type": "Point"}, "id": 2345092200, "properties": {"amenity": "restaurant", "cuisine": "mexican", "name": "El Chihuahua"}, "type": "Feature"}, {"geometry": {"coordinates": [-111.8452482, 40.686597], "type": "Point"}, "id": 2345092201, "properties": {"amenity": "restaurant", "cuisine": "ice_cream", "name": "Nielson's Frozen Custard"}, "type": "Feature"}, {"geometry": {"coordinates": [-111.8412463, 40.6724437], "type": "Point"}, "id": 2345092204, "properties": {"amenity": "restaurant", "cuisine": "american", "name": "IHOP"}, "type": "Feature"}, {"geometry": {"coordinates": [-111.8350397, 40.6656121], "type": "Point"}, "id": 2345092207, "properties": {"amenity": "restaurant", "cuisine": "thai", "name": "Pawit's Royale Thai Cuisine"}, "type": "Feature"}, {"geometry": {"coordinates": [-111.8235598, 40.6683627], "type": "Point"}, "id": 2345092209, "properties": {"amenity": "restaurant", "cuisine": "pizza", "name": "Gepetto's"}, "type": "Feature"}, {"geometry": {"coordinates": [-111.8631237, 40.583466], "type": "Point"}, "id": 2350019130, "properties": {"amenity": "restaurant", "cuisine": "sandwich", "name": "Cafe Zupas"}, "type": "Feature"}, {"geometry": {"coordinates": [-111.962995, 40.6969191], "type": "Point"}, "id": 2352934803, "properties": {"amenity": "restaurant", "cuisine": "burger", "name": "Apollo Burger", "source": "Bing"}, "type": "Feature"}, {"geometry": {"coordinates": [-111.968515, 40.6969964], "type": "Point"}, "id": 2352934820, "properties": {"amenity": "restaurant", "cuisine": "seafood", "name": "Virg's"}, "type": "Feature"}, {"geometry": {"coordinates": [-111.9767601, 40.696972], "type": "Point"}, "id": 2352934835, "properties": {"amenity": "restaurant", "cuisine": "pizza", "name": "Big Daddy Pizza"}, "type": "Feature"}, {"geometry": {"coordinates": [-111.9680161, 40.7115755], "type": "Point"}, "id": 2352934838, "properties": {"amenity": "restaurant", "cuisine": "burger", "name": "Crown Burger", "source": "Bing"}, "type": "Feature"}, {"geometry": {"coordinates": [-111.8733606, 40.7615832], "type": "Point"}, "id": 2352979379, "properties": {"amenity": "restaurant", "cuisine": "burger", "name": "Tony Burgers", "source": "Bing"}, "type": "Feature"}, {"geometry": {"coordinates": [-111.873543, 40.7615507], "type": "Point"}, "id": 2352979382, "properties": {"amenity": "restaurant", "cuisine": "sandwich", "name": "Cafe Zupas"}, "type": "Feature"}, {"geometry": {"coordinates": [-111.8714026, 40.7615588], "type": "Point"}, "id": 2352979384, "properties": {"amenity": "restaurant", "cuisine": "american", "name": "Noodles and Co"}, "type": "Feature"}, {"geometry": {"coordinates": [-111.8731407, 40.7615507], "type": "Point"}, "id": 2352979386, "properties": {"amenity": "restaurant", "cuisine": "american", "name": "Jamba Juice"}, "type": "Feature"}, {"geometry": {"coordinates": [-111.8715421, 40.7615669], "type": "Point"}, "id": 2352979389, "properties": {"amenity": "restaurant", "cuisine": "american", "name": "L & L Hawaiian Barbecue"}, "type": "Feature"}, {"geometry": {"coordinates": [-111.8717781, 40.7615466], "type": "Point"}, "id": 2352979391, "properties": {"amenity": "restaurant", "cuisine": "mexican", "name": "Rubios Fresh Mexican Grill"}, "type": "Feature"}, {"geometry": {"coordinates": [-111.8718908, 40.7615791], "type": "Point"}, "id": 2352979393, "properties": {"amenity": "restaurant", "cuisine": "american", "name": "Rumbi Island  Grill"}, "type": "Feature"}, {"geometry": {"coordinates": [-111.8590315, 40.6234266], "type": "Point"}, "id": 2356252380, "properties": {"amenity": "restaurant", "cuisine": "ice_cream", "name": "Cold Stone"}, "type": "Feature"}, {"geometry": {"coordinates": [-111.8593319, 40.6235161], "type": "Point"}, "id": 2356252381, "properties": {"amenity": "restaurant", "cuisine": "burger", "name": "Smash Burger", "source": "Bing"}, "type": "Feature"}, {"geometry": {"coordinates": [-111.869703, 40.6210605], "type": "Point"}, "id": 2357944490, "properties": {"amenity": "restaurant", "cuisine": "mexican", "name": "La Frontera"}, "type": "Feature"}, {"geometry": {"coordinates": [-111.9345363, 40.7718099], "type": "Point"}, "id": 2359021957, "properties": {"amenity": "restaurant", "cuisine": "american", "name": "Diamond Lil's"}, "type": "Feature"}, {"geometry": {"coordinates": [-111.8902114, 40.6108181], "type": "Point"}, "id": 2359035658, "properties": {"amenity": "restaurant", "cuisine": "american", "name": "Moochie's"}, "type": "Feature"}, {"geometry": {"coordinates": [-111.8362364, 40.5799793], "type": "Point"}, "id": 2359060375, "properties": {"amenity": "restaurant", "cuisine": "mexican", "name": "Costa Vida"}, "type": "Feature"}, {"geometry": {"coordinates": [-111.8700805, 40.6220777], "type": "Point"}, "id": 2359060376, "properties": {"amenity": "restaurant", "cuisine": "indian", "name": "Ganesh Indian Cuisine"}, "type": "Feature"}, {"geometry": {"coordinates": [-111.8717542, 40.6215524], "type": "Point"}, "id": 2359060377, "properties": {"amenity": "restaurant", "cuisine": "american", "name": "Epic Casual Dining"}, "type": "Feature"}, {"geometry": {"coordinates": [-111.8697801, 40.6207177], "type": "Point"}, "id": 2359060378, "properties": {"amenity": "restaurant", "cuisine": "american", "name": "Landmark Grill"}, "type": "Feature"}, {"geometry": {"coordinates": [-111.7921463, 40.5756482], "type": "Point"}, "id": 2359060379, "properties": {"amenity": "restaurant", "cuisine": "french", "name": "La Caille"}, "type": "Feature"}, {"geometry": {"coordinates": [-111.8705794, 40.6222446], "type": "Point"}, "id": 2359060380, "properties": {"amenity": "restaurant", "cuisine": "chinese", "name": "Rice King"}, "type": "Feature"}, {"geometry": {"coordinates": [-111.8855655, 40.5016055], "type": "Point"}, "id": 2359084221, "properties": {"amenity": "restaurant", "cuisine": "sandwich", "name": "Kneaders"}, "type": "Feature"}, {"geometry": {"coordinates": [-111.8857447, 40.5019913], "type": "Point"}, "id": 2359084225, "properties": {"amenity": "restaurant", "cuisine": "american", "name": "Dickey's Barbeque"}, "type": "Feature"}, {"geometry": {"coordinates": [-111.9098524, 40.5582906], "type": "Point"}, "id": 2359088044, "properties": {"amenity": "restaurant", "cuisine": "american", "name": "Dickey's Barbeque"}, "type": "Feature"}, {"geometry": {"coordinates": [-111.9129662, 40.5566402], "type": "Point"}, "id": 2359093000, "properties": {"amenity": "restaurant", "cuisine": "sushi", "name": "Tsunami Restaurant and Sushi Bar"}, "type": "Feature"}, {"geometry": {"coordinates": [-111.9116709, 40.5585026], "type": "Point"}, "id": 2359093003, "properties": {"amenity": "restaurant", "cuisine": "mexican", "name": "Gecko's Mexican Grill"}, "type": "Feature"}, {"geometry": {"coordinates": [-111.9138703, 40.5580176], "type": "Point"}, "id": 2359094509, "properties": {"amenity": "restaurant", "cuisine": "seafood", "name": "Market Street Grill"}, "type": "Feature"}, {"geometry": {"coordinates": [-111.8774044, 40.7630432], "type": "Point"}, "id": 2363245627, "properties": {"amenity": "restaurant", "cuisine": "greek", "name": "The Other Place"}, "type": "Feature"}, {"geometry": {"coordinates": [-111.8921497, 40.7652424], "type": "Point"}, "id": 2363303197, "properties": {"amenity": "restaurant", "cuisine": "german", "name": "Siegfried's Delicatessen"}, "type": "Feature"}, {"geometry": {"coordinates": [-111.9172633, 40.7653048], "type": "Point"}, "id": 2363355473, "properties": {"amenity": "restaurant", "cuisine": "mexican", "name": "Chunga's"}, "type": "Feature"}, {"geometry": {"coordinates": [-111.8964356, 40.7544114], "type": "Point"}, "id": 2363427502, "properties": {"amenity": "restaurant", "cuisine": "american", "name": "Legends Sports Pub"}, "type": "Feature"}, {"geometry": {"coordinates": [-111.8944413, 40.7620544], "type": "Point"}, "id": 2363499105, "properties": {"amenity": "restaurant", "cuisine": "american", "name": "Gracie's"}, "type": "Feature"}, {"geometry": {"coordinates": [-111.8907229, 40.7619407], "type": "Point"}, "id": 2364898741, "properties": {"amenity": "restaurant", "cuisine": "japanese", "name": "Shogun Japanese Cuisine"}, "type": "Feature"}, {"geometry": {"coordinates": [-111.8891565, 40.7608782], "type": "Point"}, "id": 2364898742, "properties": {"amenity": "restaurant", "cuisine": "indian", "name": "Star of India"}, "type": "Feature"}, {"geometry": {"coordinates": [-111.8864636, 40.7647849], "type": "Point"}, "id": 2364914330, "properties": {"amenity": "restaurant", "cuisine": "kebab", "name": "Cedars of Lebanon"}, "type": "Feature"}, {"geometry": {"coordinates": [-111.8928634, 40.7646957], "type": "Point"}, "id": 2364923203, "properties": {"amenity": "restaurant", "cuisine": "international", "name": "The Olive Bistro"}, "type": "Feature"}, {"geometry": {"coordinates": [-111.8592203, 40.6234461], "type": "Point"}, "id": 2365225500, "properties": {"amenity": "restaurant", "cuisine": "sandwich", "name": "Which Wich"}, "type": "Feature"}, {"geometry": {"coordinates": [-111.8598506, 40.7342481], "type": "Point"}, "id": 2377305516, "properties": {"amenity": "restaurant", "cuisine": "diner", "name": "Finn's"}, "type": "Feature"}, {"geometry": {"coordinates": [-111.8599218, 40.741457], "type": "Point"}, "id": 2377305517, "properties": {"addr:city": "Salt Lake City", "addr:housenumber": "1080", "addr:postcode": "84105", "addr:street": "East 1300 South", "amenity": "restaurant", "cuisine": "japanese", "name": "Kyoto", "phone": "(801) 487-3525", "website": "http://www.kyotoslc.com/"}, "type": "Feature"}, {"geometry": {"coordinates": [-111.900063, 40.7557426], "type": "Point"}, "id": 2379634991, "properties": {"addr:city": "Salt Lake City", "addr:housenumber": "307 W 600 S", "addr:postcode": "84101", "amenity": "restaurant", "cuisine": "barbecue", "name": "R&R BBQ"}, "type": "Feature"}, {"geometry": {"coordinates": [-111.9001874, 40.7558094], "type": "Point"}, "id": 2379634996, "properties": {"addr:city": "Salt Lake City", "addr:housenumber": "311 W 600 S", "addr:postcode": "84101", "amenity": "restaurant", "cuisine": "chinese", "name": "Subway"}, "type": "Feature"}, {"geometry": {"coordinates": [-111.8746513, 40.7255191], "type": "Point"}, "id": 2381475166, "properties": {"addr:city": "Salt Lake City", "addr:housenumber": "565", "addr:postcode": "84106", "addr:street": "2100 South", "amenity": "restaurant", "description": "Closed for maintenance as of 12/23/2013", "name": "Firehouse BBQ", "payment:bitcoin": "yes", "phone": "801-268-3374", "website": "http://firehousebbqfood.com/", "yelp": "http://www.yelp.com/biz/firehouse-bbq-grill-salt-lake-city?nb=1"}, "type": "Feature"}, {"geometry": {"coordinates": [-111.8965481, 40.7608914], "type": "Point"}, "id": 2383666821, "properties": {"amenity": "restaurant", "cuisine": "sushi", "name": "Simply Sushi"}, "type": "Feature"}, {"geometry": {"coordinates": [-111.9393874, 40.6092954], "type": "Point"}, "id": 2385560045, "properties": {"amenity": "restaurant", "cuisine": "mexican", "name": "Barbacoa"}, "type": "Feature"}, {"geometry": {"coordinates": [-111.9390982, 40.611156], "type": "Point"}, "id": 2385560054, "properties": {"amenity": "restaurant", "cuisine": "burger", "name": "Apollo Burger"}, "type": "Feature"}, {"geometry": {"coordinates": [-111.8672976, 40.7604167], "type": "Point"}, "id": 2386573728, "properties": {"amenity": "restaurant", "cuisine": "pizza", "name": "Wasatch Pizza"}, "type": "Feature"}, {"geometry": {"coordinates": [-111.8707166, 40.758055], "type": "Point"}, "id": 2386615178, "properties": {"amenity": "restaurant", "cuisine": "italian", "name": "Tucci's Cucina Italliana"}, "type": "Feature"}, {"geometry": {"coordinates": [-111.9836391, 40.5446175], "type": "Point"}, "id": 2390949862, "properties": {"amenity": "restaurant", "cuisine": "italian", "name": "Olive Garden"}, "type": "Feature"}, {"geometry": {"coordinates": [-111.9832132, 40.5452925], "type": "Point"}, "id": 2390954946, "properties": {"amenity": "restaurant", "name": "Buffalo Wild Wings"}, "type": "Feature"}, {"geometry": {"coordinates": [-111.9823119, 40.5455053], "type": "Point"}, "id": 2390956145, "properties": {"amenity": "restaurant", "name": "Longhorn Steak House"}, "type": "Feature"}, {"geometry": {"coordinates": [-111.9835747, 40.5429706], "type": "Point"}, "id": 2390957666, "properties": {"amenity": "restaurant", "cuisine": "american", "name": "Village Inn"}, "type": "Feature"}, {"geometry": {"coordinates": [-111.9811393, 40.5403778], "type": "Point"}, "id": 2390968182, "properties": {"amenity": "restaurant", "name": "Sizzler's"}, "type": "Feature"}, {"geometry": {"coordinates": [-111.9801392, 40.5404227], "type": "Point"}, "id": 2390968656, "properties": {"amenity": "restaurant", "name": "Red Robin"}, "type": "Feature"}, {"geometry": {"coordinates": [-111.9432601, 40.771916], "type": "Point"}, "id": 2390984601, "properties": {"amenity": "restaurant", "name": "That Sandwich Shop"}, "type": "Feature"}, {"geometry": {"coordinates": [-111.8506547, 40.7260858], "type": "Point"}, "id": 2403975557, "properties": {"addr:housenumber": "1405 E", "addr:postcode": "84105", "addr:street": "2100 S", "amenity": "restaurant", "cuisine": "thai", "name": "Ekamai Thai"}, "type": "Feature"}, {"geometry": {"coordinates": [-111.8717275, 40.7259659], "type": "Point"}, "id": 2403977592, "properties": {"addr:housenumber": "675 E", "addr:postcode": "84105", "addr:street": "2100 S", "amenity": "restaurant", "cuisine": "chinese", "name": "Sampan Chinese"}, "type": "Feature"}, {"geometry": {"coordinates": [-111.8915649, 40.7581257], "type": "Point"}, "id": 2460696240, "properties": {"amenity": "restaurant", "name": "Little America Steakhouse"}, "type": "Feature"}, {"geometry": {"coordinates": [-111.8916024, 40.7579306], "type": "Point"}, "id": 2460696241, "properties": {"amenity": "restaurant", "name": "Wasatch Sports Bar"}, "type": "Feature"}, {"geometry": {"coordinates": [-111.8942463, 40.761498], "type": "Point"}, "id": 2460734605, "properties": {"amenity": "restaurant", "name": "Mo's Neighborhood Grill"}, "type": "Feature"}, {"geometry": {"coordinates": [-111.8972836, 40.7565394], "type": "Point"}, "id": 2460891331, "properties": {"amenity": "restaurant", "name": "Last Samurai Steakhouse"}, "type": "Feature"}, {"geometry": {"coordinates": [-111.8885578, 40.7634568], "type": "Point"}, "id": 2461895256, "properties": {"addr:city": "Salt Lake City", "addr:country": "US", "addr:housenumber": "260", "addr:postcode": "84111", "addr:street": "South State Street", "amenity": "restaurant", "cuisine": "mexican", "name": "Alamexo", "website": "http://www.alamexo.com/"}, "type": "Feature"}, {"geometry": {"coordinates": [-111.877311, 40.7701682], "type": "Point"}, "id": 2462094418, "properties": {"amenity": "restaurant", "cuisine": "indian", "name": "Saffron Valley East India Cafe"}, "type": "Feature"}, {"geometry": {"coordinates": [-111.8879252, 40.6873851], "type": "Point"}, "id": 2463230497, "properties": {"amenity": "restaurant", "cuisine": "burger", "name": "Astro Burger"}, "type": "Feature"}, {"geometry": {"coordinates": [-111.8359508, 40.7561373], "type": "Point"}, "id": 2463317779, "properties": {"amenity": "restaurant", "name": "Corner Bakery Cafe"}, "type": "Feature"}, {"geometry": {"coordinates": [-111.8341325, 40.6390146], "type": "Point"}, "id": 2468870404, "properties": {"amenity": "restaurant", "name": "Greek City Grill"}, "type": "Feature"}, {"geometry": {"coordinates": [-111.8340082, 40.6379916], "type": "Point"}, "id": 2468877167, "properties": {"amenity": "restaurant", "name": "China Grill"}, "type": "Feature"}, {"geometry": {"coordinates": [-111.8882204, 40.6205445], "type": "Point"}, "id": 2468942582, "properties": {"amenity": "restaurant", "name": "Bohemian Brewery"}, "type": "Feature"}, {"geometry": {"coordinates": [-111.8989154, 40.6202861], "type": "Point"}, "id": 2468955260, "properties": {"amenity": "restaurant", "cuisine": "mexican", "name": "Beto's"}, "type": "Feature"}, {"geometry": {"coordinates": [-111.9822056, 40.7869382], "type": "Point"}, "id": 2470305206, "properties": {"amenity": "restaurant", "layer": "1", "name": "Market Street Grill"}, "type": "Feature"}, {"geometry": {"coordinates": [-111.9817171, 40.7880185], "type": "Point"}, "id": 2470307869, "properties": {"amenity": "restaurant", "cuisine": "pizza", "name": "Salt Lake Pizza & Pasta"}, "type": "Feature"}, {"geometry": {"coordinates": [-111.9815249, 40.7878641], "type": "Point"}, "id": 2470307875, "properties": {"amenity": "restaurant", "cuisine": "burger", "name": "Squatter's Pub"}, "type": "Feature"}, {"geometry": {"coordinates": [-111.9813959, 40.788251], "type": "Point"}, "id": 2470307880, "properties": {"amenity": "restaurant", "cuisine": "burger", "name": "UFood Grill"}, "type": "Feature"}, {"geometry": {"coordinates": [-111.8389839, 40.6668159], "type": "Point"}, "id": 2477115896, "properties": {"amenity": "restaurant", "cuisine": "mexican"}, "type": "Feature"}, {"geometry": {"coordinates": [-111.8541051, 40.6253106], "type": "Point"}, "id": 2495672650, "properties": {"amenity": "restaurant", "cuisine": "japanese", "name": "Suehiro"}, "type": "Feature"}, {"geometry": {"coordinates": [-111.8611585, 40.7241324], "type": "Point"}, "id": 2502031156, "properties": {"amenity": "restaurant", "cuisine": "burger", "name": "The Habit Grill"}, "type": "Feature"}, {"geometry": {"coordinates": [-111.805823, 40.6326493], "type": "Point"}, "id": 2509039065, "properties": {"amenity": "restaurant", "name": "Jimmy John's"}, "type": "Feature"}, {"geometry": {"coordinates": [-111.8057502, 40.6325122], "type": "Point"}, "id": 2509039069, "properties": {"amenity": "restaurant", "cuisine": "american", "name": "Bout Time"}, "type": "Feature"}, {"geometry": {"coordinates": [-111.806295, 40.631892], "type": "Point"}, "id": 2509039087, "properties": {"amenity": "restaurant", "name": "Thai Basil"}, "type": "Feature"}, {"geometry": {"coordinates": [-111.8060669, 40.631791], "type": "Point"}, "id": 2509039093, "properties": {"amenity": "restaurant", "name": "Happy Sumo"}, "type": "Feature"}, {"geometry": {"coordinates": [-111.8771621, 40.7695883], "type": "Point"}, "id": 2558180369, "properties": {"amenity": "restaurant", "cuisine": "regional", "name": "Wild Grape", "source": "local_knowledge"}, "type": "Feature"}, {"geometry": {"coordinates": [-111.8611577, 40.7249206], "type": "Point"}, "id": 2578709884, "properties": {"amenity": "restaurant"}, "type": "Feature"}, {"geometry": {"coordinates": [-111.8610834, 40.7251818], "type": "Point"}, "id": 2580177607, "properties": {"addr:city": "Salt Lake City", "addr:housenumber": "1044", "addr:postcode": "84106", "addr:street": "East 2100 South", "amenity": "restaurant", "cuisine": "pizza", "name": "Flatbread Neapolitan Pizzeria", "website": "http://flatbreadpizza.com/"}, "type": "Feature"}, {"geometry": {"coordinates": [-111.890266, 40.76697], "type": "Point"}, "id": 2584451027, "properties": {"amenity": "restaurant", "cuisine": "sushi", "name": "Ah Sushi"}, "type": "Feature"}, {"geometry": {"coordinates": [-111.8264711, 40.7387107], "type": "Point"}, "id": 2611689385, "properties": {"amenity": "restaurant", "cuisine": "sushi", "name": "Hi Sushi"}, "type": "Feature"}, {"geometry": {"coordinates": [-111.829924, 40.7256495], "type": "Point"}, "id": 2614836213, "properties": {"addr:city": "Salt Lake City", "addr:housenumber": "2121 East", "addr:postcode": "84109", "addr:street": "2100 South", "amenity": "restaurant", "cuisine": "Chinese", "name": "Hunan Garden"}, "type": "Feature"}, {"geometry": {"coordinates": [-111.8608961, 40.7251323], "type": "Point"}, "id": 2622503622, "properties": {"amenity": "restaurant", "cuisine": "american", "name": "The Annex by Epic"}, "type": "Feature"}, {"geometry": {"coordinates": [-111.873675, 40.7414012], "type": "Point"}, "id": 2641218622, "properties": {"amenity": "restaurant", "cuisine": "american", "name": "Park Cafe"}, "type": "Feature"}, {"geometry": {"coordinates": [-111.872482, 40.7727221], "type": "Point"}, "id": 2698548152, "properties": {"amenity": "restaurant", "cuisine": "american", "name": "Avenues Bistro"}, "type": "Feature"}, {"geometry": {"coordinates": [-111.892396, 40.762613], "type": "Point"}, "id": 2756080463, "properties": {"amenity": "restaurant", "cuisine": "italian", "name": "Sicilia Pizza"}, "type": "Feature"}, {"geometry": {"coordinates": [-111.899106, 40.758155], "type": "Point"}, "id": 2756093396, "properties": {"amenity": "restaurant", "cuisine": "mexican", "name": "Alberto's"}, "type": "Feature"}, {"geometry": {"coordinates": [-111.9037681, 40.6548743], "type": "Point"}, "id": 2765809080, "properties": {"amenity": "restaurant", "cuisine": "mexican", "name": "Taco Time"}, "type": "Feature"}, {"geometry": {"coordinates": [-112.0031077, 40.546978], "type": "Point"}, "id": 2773449313, "properties": {"amenity": "restaurant", "cuisine": "mexican", "name": "Tio's"}, "type": "Feature"}, {"geometry": {"coordinates": [-111.9847825, 40.7879689], "type": "Point"}, "id": 2840333838, "properties": {"amenity": "restaurant", "cuisine": "italian", "name": "Vivace Cucina Toscana"}, "type": "Feature"}, {"geometry": {"coordinates": [-111.939231, 40.5192074], "type": "Point"}, "id": 2849320435, "properties": {"amenity": "restaurant", "name": "Jim's"}, "type": "Feature"}, {"geometry": {"coordinates": [-111.7942705, 40.6855268], "type": "Point"}, "id": 2918049151, "properties": {"addr:housenumber": "3977", "addr:street": "Wasatch Boulevard", "amenity": "restaurant", "cuisine": "pizza", "name": "Rocky Mountain Pizza"}, "type": "Feature"}, {"geometry": {"coordinates": [-111.7410087, 40.6980151], "type": "Point"}, "id": 2918128163, "properties": {"amenity": "restaurant", "name": "Millcreek Inn"}, "type": "Feature"}, {"geometry": {"coordinates": [-111.7265864, 40.6982881], "type": "Point"}, "id": 2918128164, "properties": {"amenity": "restaurant", "name": "Log Haven"}, "type": "Feature"}, {"geometry": {"coordinates": [-112.0020944, 40.5469495], "type": "Point"}, "id": 2925314612, "properties": {"amenity": "restaurant", "cuisine": "italian", "name": "Granato's Deli"}, "type": "Feature"}, {"geometry": {"coordinates": [-111.8707191, 40.7538509], "type": "Point"}, "id": 2955197914, "properties": {"amenity": "restaurant", "cuisine": "donut", "name": "Banbury Cross"}, "type": "Feature"}, {"geometry": {"coordinates": [-111.8702618, 40.7603578], "type": "Point"}, "id": 2955197915, "properties": {"amenity": "restaurant", "cuisine": "pizza", "name": "Litzas Pizza"}, "type": "Feature"}, {"geometry": {"coordinates": [-111.8706511, 40.759642], "type": "Point"}, "id": 2955197917, "properties": {"amenity": "restaurant", "cuisine": "steak_house", "name": "Ruby River"}, "type": "Feature"}, {"geometry": {"coordinates": [-111.8589128, 40.6233849], "type": "Point"}, "id": 2974596082, "properties": {"amenity": "restaurant", "cuisine": "american", "name": "Original Pancake House"}, "type": "Feature"}, {"geometry": {"coordinates": [-111.8914629, 40.764381], "type": "Point"}, "id": 2974615599, "properties": {"amenity": "restaurant", "cuisine": "american", "name": "222 Bistro"}, "type": "Feature"}, {"geometry": {"coordinates": [-111.8666219, 40.6467962], "type": "Point"}, "id": 3001116747, "properties": {"amenity": "restaurant", "cuisine": "Japanese", "name": "Yoshi's Japanese Grill"}, "type": "Feature"}, {"geometry": {"coordinates": [-112.0239013, 40.7758067], "type": "Point"}, "id": 3076763007, "properties": {"addr:city": "Salt Lake City", "addr:housenumber": "5575", "addr:postcode": "84116", "addr:street": "Amelia Earhart Drive", "amenity": "restaurant", "email": "ramadaslcairport@hotmail.com", "fax": "18015377701", "name": "Amelia\u00e2\u0080\u0099s Grill & Bar", "phone": "18015377020", "website": "http://www.ameliasgrill.com/"}, "type": "Feature"}, {"geometry": {"coordinates": [-111.8647814, 40.6685244], "type": "Point"}, "id": 3123443014, "properties": {"amenity": "restaurant", "name": "Arby's"}, "type": "Feature"}], "type": "FeatureCollection"}